NAME,CATEGORY,ADDRESS,LAT,LNG,ID
Teatro Orione ora Ecoteatro,Theater,Via Fezzan 11,45.45907272,9.145780775,4d41cf1fbd53f04d480a5115
Red's cess,Concert Hall,,45.464245,9.147996,4e3dde9745dd68e327403145
Sotterranei Oscuri di Casa Gozzo,Lounge,Via Giuseppe Frua 21/6,45.46447495,9.147839845,4df3070218a88611c6bb2255
Accademia Di Teatroterapia Non Chiamateci Attori,Theater,Via Giovanni Battista Moroni 8,45.46557944,9.146488733,4dcd458b52b1f8915b78cc68
la mia ora di yoga,General Entertainment,,45.46834879,9.148692151,4f15acfae4b0960d02fe2b1d
The Tune,Music Venue,Via Frascati,45.46897895,9.145948585,4c92423d238c6dcb07e3c655
Teatro del buratto,Theater,Via Mosè Bianchi 84,45.47567227,9.145051384,4ebfddfc0e019a162ac92d67
Bea Expo Festival,General Entertainment,Spazio Eventiquattro,45.47755,9.145829,50a63edde4b0451f155359d5
The Mule #2,Lounge,Piazza Napoli 30/7,45.452847,9.151729,5831ee2688cfcc313b9871d8
Freesound Scuola di Musica,Music Venue,Via Washington 40,45.45472424,9.152980637,4f5a893fe4b0695cb957ca73
Arcadia Productions,Theater,via Vespri Siciliani 16,45.45361378,9.150428155,4c7cb4e92dc195212983bf77
ludoteca cinofila,Lounge,Piazza Napoli 30/7,45.453128,9.151534,546e41ff498e95cfcd6ef93b
Circolo Culturale Shams,General Entertainment,Via Tobruk,45.457085,9.149581,506b0ddce4b0821d1300dcd7
Shams,General Entertainment,"Via Tobruk, 20078 San Colombano al Lambro Milan",45.45637824,9.15207071,4f09cad2e4b0945c6c4e6424
B&B Romolo Gessi,General Entertainment,,45.45679311,9.152732752,54023219498e97602cdab3dd
Dea's,Comedy Club,,45.45599184,9.153184656,4fc52278e4b066035ce1cabf
Davoli's mansion,Nightclub,,45.4613,9.150368,4c8f72081992a1cd53bbe5fb
AlePalooza,Music Venue,via Luchino del Maino 12,45.46005213,9.1504167,4df3af77ae609e69dd9a8c2b
SilverMusic,General Entertainment,Via Roncaglia 27,45.45909724,9.151867469,4ee116afb8f7413830e87dad
Tombino,Lounge,,45.46100883,9.153293043,4c45ef37f1d80f471579a23c
COACH Dj,General Entertainment,Via Roncaglia 27,45.45911003,9.151715,4d7248dbff6ba35d69b46b8a
Regi's Lounge,Lounge,Viale ergisto Bezzi 73,45.462112,9.148906,56abf9b4498eabc430d1883f
Artmouse,General Entertainment,,45.461984,9.152452,4ca3750c7f84224b6814c558
Alessandra D. A.,General Entertainment,"Via Marghera, 43, 20149 Milano",45.46593272,9.152313995,4ebd27570aaf88633ba1c2c3
Spazio Asti,General Entertainment,Via Asti 17,45.46611902,9.152641606,4bfe2e822b83b713cddca998
"quiet, please!",General Entertainment,,45.46523739,9.15030377,4e64ff2ab0fb188e8ec86dc9
NPJparty,General Entertainment,Via privata Asti,45.466259,9.15286,5086b368e4b040ea08806ae7
Aragorn,Comedy Club,Via Vittoria Colonna 49,45.46753374,9.14974431,4f27ea7ee4b0b501745edeff
Riky In Console,Nightclub,,45.46807437,9.151333882,4f738c80e4b0a60ba5ecd5c2
Metiss ' Art,Dance Studio,"Via Angelo Morbelli, 7, 20149 Milano",45.47118698,9.149551109,4eb2d9432c5b5915ce1a8fd1
ASD Spazio Capoeira Desequilibrio,General Entertainment,Via Correggio 55,45.46836327,9.149358422,4eee0c326c25c7f9d2af4f80
MusicDrome,Nightclub,Via Pier Alberto Paravia 59,45.47330328,9.149766151,4b05887bf964a5206fc822e3
Tortona 37,Event Space,Via Tortona 37,45.44949497,9.157540458,4e1c0727e4cd1f7c5d7c6a0d
Nokia Low Light Box,General Entertainment,,45.4505,9.158,516d8880498ef16ff2ff9d2f
Gaussian Blur,Nightclub,,45.449648,9.157679,4f909762e4b0e026aa3b8954
Smartbox,General Entertainment,Via Tortona 37,45.450358,9.158142,5166eeede4b0507228da3a1d
Peugeot 208 XY Purple Night Party,Nightclub,Alzaia Naviglio Grande 116,45.44815426,9.156975031,518d2f0c498eda07d01bdf81
University Equipe,Nightclub,Via pietrasanta 12,45.45416912,9.154290111,54259b64498e989838f6c307
younger’s in design,General Entertainment,via savona 55,45.45186729,9.156718254,51605c6ac84ca0b532ba550e
Stella Marina,Comedy Club,,45.45354462,9.156147003,4fd51120e4b054c59a1323d8
Camera Fulci,General Entertainment,,45.45266897,9.15454999,4e6d101f45dd435bc1506d16
Paradise Terrace,Lounge,,45.4517569,9.157917871,4c8c09c3ed3ab60c0e196421
Silver's Mansion,Nightclub,,45.457954,9.154691,532ccf99498e7588353034e3
Sailing Passion,General Entertainment,Via Foppa 49,45.45626121,9.156515518,4f40cb42e4b0102f0de4ce10
Junk Food srl - Lost In Fashion.it,General Entertainment,Via V.Foppa 46,45.45653722,9.1568129,4bed70fcbac3c9b68743fee9
caliri,General Entertainment,,45.45695496,9.15607357,4ffcd05de4b00fe5cb4167aa
BeatStreet,Concert Hall,,45.45590951,9.156017674,4eb9b8676da17451dd956a64
у Вали,Lounge,Piazza Bolivar,45.45542,9.153688,5675cf8d38fa07a24b7cf79b
La Tana 2,General Entertainment,,45.46018754,9.157611038,526ed2c911d2187d0537615f
Mansarda Mari,Lounge,Via Egadi 10,45.4600879,9.157983865,506b0087e4b096123a1b3bfd
The Block,Residential Building (Apartment / Condo),Via Washington 52,45.46250643,9.154427761,50c12341e4b0661cb2c59f4b
Teatro Caboto,Theater,via Sebastiano Caboto 2,45.46236246,9.156597027,4cb0bbd56c269521e6f3b7d9
Free Sound,Music Venue,Via Washington 40,45.46329726,9.154981778,4c8e644aad70a143c94f890f
Art Dance,General Entertainment,Via Washington 16,45.46483368,9.155098834,525eeaf1498e03901b2ea896
Teatro Nazionale,Theater,Piazza Piemonte 12,45.46673551,9.153980246,4bdd7c1d4ffaa593ab826ff7
Mind Juggler Francesco Tesei,Theater,Piazza Piemonte Milano,45.466807,9.154552,52e809aa11d2b7c15daacf44
Biglietteria Nazionale,Theater,,45.46669156,9.155311281,50c31571e4b0fe852d32767f
Sala Wagner,Theater,Piazza Wagner 2,45.46820467,9.156621695,4dab345df7b145b370215c81
Smooth Cafè,Lounge,Via Michelangelo Buonarroti 15,45.46842951,9.155282916,4ba90310f964a52070033ae3
Get Me Out,General Entertainment,Via Emanuele Filiberto,45.48523,9.157538,5766bfa3498e7a574ac122e0
Teatro San Cipriano,Theater,Via Carlo D'Adda,45.44624,9.161331,4cf015fd7bf3b60ce760577f
Massive Arts Studios,Concert Hall,Via Eugenio Villoresi 24,45.44667121,9.162956562,4de23782ae60e7f3abe99ed8
Linguaggi Creativi,Theater,,45.44659095,9.162924671,4ec9133c0e6158ba006c53eb
Malagher,Piano Bar,"Via Malaga, 6",45.44536,9.159379,4bd45cf5a8b3a5933c9c6b5f
The Botanical Club,Lounge,Via Tortona 33,45.45133764,9.161408564,5772bab6498e45d5a647c213
Red Bull Party,Nightclub,Via Tortona,45.449953,9.161226,4f91d37be4b0c9a2aa1db300
T35,Nightclub,Via tortonax,45.45110105,9.160652193,4bd2384741b9ef3b8eaafde5
Area Relax @BM,General Entertainment,Via Tortona 37,45.450612,9.158587,52496239498e2e72bd7a6f96
Alphabet,Nightclub,Alzaia Naviglio Grande 98,45.44944236,9.161711485,5286dabd11d253e6ba962bdf
eBayLiving,General Entertainment,Via Tortona 31,45.4509867,9.159368277,51631f7b8aca9531248a8bb4
Moncler Gamme Bleu FW13 Show,General Entertainment,Via Tortona 58,45.45129529,9.1609025,50ed9366f31cdcd22aa24108
Rocket,Rock Club,Alzaia Naviglio Grande 98,45.44943073,9.161466462,4b05887bf964a52073c822e3
Codice a Barre,Music Venue,98 Alzaia Naviglio Grande,45.44935503,9.161643897,4b05887af964a52046c822e3
Emporio 31,General Entertainment,Via Tortona 31,45.4509151,9.162802099,4f74c2b9e4b04f5d5cd17fcc
Calcetto VML,General Entertainment,"Via Tortona, 37",45.450253,9.158367,4ced078c3b03f04d91de31dc
Bobino Club,Cocktail Bar,Alzaia Naviglio Grande 116,45.44902139,9.15937359,4c41f2c7ce54e21ecedb0b1a
Fashion Parfumed Corner,General Entertainment,Via Tortona 54,45.451676,9.162944,4e7db8387ee671559aecb992
Giovannoni Studio,Lounge,,45.453827,9.158897,5165f6b9e4b0ef70eacac737
Sfilata C'N'C Costume national- Castello Sforzesco,General Entertainment,,45.45157367,9.16100543,505c5948e4b035b64dc0f796
Rocky Horror Picture Show,General Entertainment,,45.45262077,9.160216227,4d9f6b8e5dc7f04d62506e91
Il Raduno Dei Distratti,General Entertainment,,45.451888,9.162981,51045785e4b0ad7f35ff40d9
Aria Savona,General Entertainment,"Via savona, 43",45.453621,9.161947,4c016c5b58dbc9282b54ee6b
L'Huffington Post Launch,General Entertainment,,45.453732,9.160966,5061f730e4b0597ff990367a
Sapori Solari,Gastropub,Via Anguissola 5,45.45378037,9.158378341,4d78c963db7c548175ee35f2
Vertical Stage Session,Music Venue,Via Stendhal 30,45.452319,9.159932,4dab1c2e0437dccbd8155805
Circle,Lounge,"Via Stendhal, 36",45.45357791,9.159337817,4c29e93f9eb19521b0d12959
welcomehome,General Entertainment,Via Stendhal 36,45.45353697,9.160006092,57100886498ece022dbedfb1
Foppa31,General Entertainment,,45.45706916,9.158908631,50bef4afe4b0fb901fc997c3
Idio,Lounge,Via Foppa 24,45.45770805,9.160648464,4e8231978b81400d66718ef9
Biliardo Corso Colombo,General Entertainment,,45.45910044,9.161006422,4f68de84e4b0fef790124307
Corso Del Lunedì,General Entertainment,,45.460863,9.16281,4e89688193ad855afd6a15a3
L.E.S. Milano,General Entertainment,Piazza Sant'Agostino,45.46467529,9.162503244,4f155643e4b09e81dc862cff
Circolo ricreativo Versaci,General Entertainment,Via Ercole Ferrario,45.46205426,9.161139658,5234beff11d2054cea295610
desperate housewife,Comedy Club,,45.464228,9.161787,5315f80a11d208cb44d2c20e
Mini countryman party,Nightclub,Via Bergognone 34,45.46575488,9.161627725,4bc4e4eaf8219c74940eb810
Uramaki.tv,Rock Club,Webvideo Factory,45.46612329,9.15837778,4eca3aa80e6158ba01b7a25a
Mammamondo Milano,General Entertainment,Via Cimarosa 8,45.46661934,9.158413113,4fbca6bce4b0742d2e42d5bf
mon métro,Comedy Club,,45.46690654,9.162869279,4e08cec3c65b5bf27798317d
ottavio's flat,Nightclub,Via Giovanni Rasori 9,45.467803,9.162329,569585e1498e725384bf75b4
Giostre di Largo Zandonai,General Entertainment,,45.47055556,9.159527973,50029045e4b0c123ddf9e191
Legend Tour Harley,General Entertainment,,45.46834455,9.160065474,4dce5f86e4cd130e1664c09f
chez tamburello,General Entertainment,via alberto da giussano 24,45.469809,9.162079,4dade5546a23e6c9347ee0f8
Maratona Manzoni,Amphitheater,,45.47473,9.160308,57f7b06f498ea2b997362f5f
Auditorium Leone XIII,Theater,,45.47393944,9.16296748,4d0d15028010548122891c96
Terrace bbq,Comedy Club,,45.47839996,9.161865371,4e0f8c91b0fb59de67e17cba
Terrazzonello,Nightclub,,45.48132556,9.160056859,4eab5362991107f63c8fde34
Sequoia,Bar,Via giovanni Prati,45.478587,9.161378,4bdb4c2f2a3a0f473f57aeb6
Casa JPtaz,Concert Hall,,45.48265457,9.162620544,559eae6a498e7a2cd1cfe6d7
Casa dell'informatico pazzo,General Entertainment,,45.48472622,9.159235944,54593681498e5e33a6666378
Spazio Scopricoop,General Entertainment,,45.48307212,9.158985352,534d5949498e16359c4fd2fe
55Milano,Lounge,"via Piero Della Francesca, 55",45.48587639,9.160411135,54baecb2498e16c0b9e59c4f
Chatulle,Italian Restaurant,"Via Piero della Francesca, 68",45.48616425,9.1603105,4c0566b2761ac9b6aa781f74
Villa Bambù,Lounge,Via Salvioni,45.48544629,9.160633509,4e05d97b14959022c88c10fb
Alle Volte Spazio,General Entertainment,Via Cenisio 62,45.48778915,9.160392761,524474e611d24615c621aacb
Mr Brown's studios,General Entertainment,via Cenisio 62,45.488186,9.160086,4fa11bbee4b0e93e33d3a063
Il Gattopardo Café,Nightclub,"Via Piero della Francesca, 47",45.48530784,9.161588245,4c69c94ccff29521353d1a5e
Linguaggi Creativi,Theater,Via Villoresi 26,45.44641145,9.165267339,4caa0365ae1eef3bdf7f3347
Teatro LinguaggiCreativi,Theater,,45.44644241,9.16345592,50a8f82de4b0b2e8c02cb8a1
SuperStudio Più,Art Gallery,Via Tortona 27,45.45081902,9.163484548,4ba7b7e4f964a520b4ac39e3
Spazio Bugatti 15,General Entertainment,Via Gaspare Bugatti 15,45.45127002,9.167252926,5065e09de4b0b68b5da28925
Super Juice Bar Tortona,General Entertainment,,45.450494,9.163429,5168117ce4b08a51fbae4491
Monsterland,General Entertainment,,45.44995747,9.164394393,5272cb3a11d25034fbea22df
Via Bugatti 15,General Entertainment,,45.451257,9.167459,4f8dc117e4b013d9a584dd96
The Magazzini,General Entertainment,,45.450573,9.16693,5168866ae4b031a6fbc91e49
Magazzini di Porta Genova,General Entertainment,,45.45061761,9.167478068,4f74c798e4b0bb6ea26e97ce
Cake Festival 2016,General Entertainment,,45.450782,9.163524,57fa6480498ea2b99c60192f
Circo Delle Pulci,General Entertainment,Ex Magazzini Porta Genova,45.45053907,9.167021569,5262f88e498ee0f0a3f31b9e
Temporary museum,General Entertainment,,45.451299,9.167164,4f91e3a1e4b079cca4933875
Liquidambar,Lounge,,45.45265,9.167143,5777f32a498e189814efbd22
Terrazza Gancia,Lounge,Via Tortona 21,45.452858,9.166469,4c17c4651436a5934d558c75
Fotografica 12,General Entertainment,,45.453057,9.165530941,50a3d332e4b06729d1186af7
Carlsberg Drink Different,Nightclub,Via Bergognone 30,45.45401831,9.166674646,4ed81fc3d3e346be3196584c
McOttavio's,General Entertainment,,45.45425597,9.167074055,4eed20949adf257d6677a5f4
rotonda di via bergognone,Nightclub,,45.452348,9.164491,552d6d03498ea54018f26788
Burlesque Award,General Entertainment,,45.453897,9.163767,4d6043345b276dcb778213c6
Tortona 32,General Entertainment,Via Tortona 32,45.45279932,9.165502011,4c10a781b93cc9b68f1157e0
Food Experience Mondadori,General Entertainment,Via TORTONA 15,45.45293896,9.167421126,51658db6e4b04d92cb664989
Officina Creativa Ansaldo,General Entertainment,,45.45224613,9.163683016,4fdb61b6e4b034b3a94252db
Superstudio13,Art Gallery,Via Forcella 13,45.45193671,9.167664689,4cd497a2b2a437047e727844
MACS - Mazda Contemporary Space,General Entertainment,"Via Forcella, 3",45.45284,9.166345,51669cb7e4b02c1af1a6bbd0
Philips simply@home - Spazio Galvanotecnica Bugatti,General Entertainment,Via Gaspare Bugatti 7,45.452,9.167111,4d91da66521760fc7b401593
L'attico Live,Nightclub,Via Tortona 21,45.452811,9.166426,531262c2498e6faeaccc8554
Established & Sons,Strip Club,Teatro versace,45.45370186,9.163113319,4da775c243a12d0c263a168a
Lavazza,General Entertainment,,45.453887,9.163067,516575aae4b0fd02d2a62cd2
MINI Paceman Garage,General Entertainment,Via Tortona 20,45.45332298,9.166607389,5162fd42e4b02525e1d4e111
"Ciclotte ""The Round Experience""",General Entertainment,Via Forcella 13,45.451757,9.167418,5165420fe4b003192e7b5730
Heineken The Club,Nightclub,,45.45243516,9.166656199,4f8dc327e4b05cdaa129b532
Stefy Agenzy,General Entertainment,Via Savona,45.454613,9.166409,4f846acfe4b03e850be200d5
Food&design,General Entertainment,,45.45340469,9.167243669,51655da1e4b06f9467d611d1
We Love Glasses,Lounge,,45.453851,9.165369,4da9deab0cb6a89c6260afd1
Fuoribalcone,Music Venue,,45.45503687,9.166870925,4da9e9146a2303012f014fbe
The iron factory occupied by crazy people,General Entertainment,Via Savona 18,45.455609,9.167468,4c2b95dc2219c928f7d5a448
UnlockMI,General Entertainment,,45.460105,9.16678,59c6c9a2237dee656b63d2a5
Passo Carrabile Foppa 7,General Entertainment,Via Vincenzo Foppa 7,45.45877588,9.163809574,4e867444722e3aa906467f0b
San Vittore Pub Restaurant,Other Nightlife,Viale Papiniano 16,45.4601116,9.166110291,4c46219f342c1b8d65b4b589
Sanvittore Ristorante Cocktail Bar & Lounge,Lounge,16,45.46112626,9.164426304,4d1b60ca6526a35d27100f16
Sedici:9,General Entertainment,"Via Coni Zugna, 5",45.460553,9.164848,5281f996498efeef7e76ad54
studio asci,General Entertainment,,45.46477127,9.165491104,4f743497e4b0ae979ec9a1e9
DomenicaAspasso,General Entertainment,,45.46274509,9.163729361,4ec8c077e300719916a17b7e
emettp,Nightclub,Via Carso,45.465636,9.166313,582b45c1bda2d73834bb1b77
Emanuelandia,Nightclub,Casa Mia. Top secreta,45.465604,9.16641,508aa697e4b0c56e748a4876
Banaker,Nightclub,,45.465591,9.16635,506887f6e4b029886573dda2
Pinky's,General Entertainment,,45.46630102,9.163155556,4ee4d3efe5faffd731ff07c6
Caserma CC Montebello,General Entertainment,,45.4748064,9.165328102,4f143283e4b0960d01800e3b
Terrazza ISCM,Nightclub,Largo Quinto Alpini 1,45.47209407,9.166988399,4f6a24a8e4b04b16fd711b90
Largo Quinto Alpini - Milano,Road,,45.4717924,9.166867634,51ee8097498eff58246b8118
Villa Monti,Nightclub,,45.47473193,9.164411437,4e2b3a3518a80bb058572615
Baldini&Castoldi,General Entertainment,via Abbondio Sangiorgio 18,45.475898,9.166195,51f0e014498eeec0f7d4d02c
Don't Movie Factory,Comedy Club,Via Zumbini 6,45.478969,9.163158,4e01c5bdd1647696f12445d2
fotofoto,General Entertainment,,45.48271942,9.164885521,4fac3709e4b017dfa51923ce
Ateneo Moda,General Entertainment,Via Plinio 54,45.48458725,9.166655685,519cc16f498e7d16d022b442
Mobsound Studios,Music Venue,"Via Privata Chieti, 10",45.48492485,9.16356221,4c42b9b8d7fad13a679f09da
Absolut Ice Bar,Nightclub,Piazza Gerusalemme 12,45.484756,9.167604,50300d28e4b04d70beb4e8d7
Harmony Cafe,Lounge,,45.48591839,9.163210393,4fa6b491e4b02443379aebc0
Club Decó,Lounge,San Galdino,45.48646896,9.167426224,5713c772cd102e21f7fba589
Cubo Decò,Lounge,Via San Galdino 5,45.48666879,9.16715448,4bdc6757c79cc928c06086e9
Associazione Culturale Scimmie Nude,Comedy Club,"Piazza Giovanni Perego, 11",45.49036077,9.167886464,4c89e3301107b713f479843a
i tre travoni,Nightclub,via principe eugenio,45.48991976,9.164672204,4e712b2918381bc64b1dfa4b
Teatro Out Off,Theater,"Via Mac Mahon, 16",45.48933625,9.164373515,4bf5803b94b2a593f6aeabee
Overdrive Studio,Concert Hall,Mc Mahon 14,45.48907954,9.164219048,4f2ebaace4b0bd78b825dff0
Spoons Concert Hall,Concert Hall,via cucchiari,45.48928845,9.165669023,4dfef29f88779f08f9972b7f
Music Production,Concert Hall,,45.44782902,9.169848995,4e03bede2271233b767b0f97
Argelab,Jazz Club,Via Argelati 47,45.445841,9.168476,551464ff498e3ea7dd474dde
Indiana Production,General Entertainment,"via Argelati, 33",45.44783857,9.169740482,4c73bbca0e8cbfb7c1840bdb
i-indiana,Office,"Via Argelati, 33",45.44779335,9.169669064,4c73a3d78efc37042ffe157d
Guangmei's,General Entertainment,,45.448328,9.172179,51bc099c498e55ee390150b3
Soul Kitchen,Music Venue,"Via Casale, 7",45.451205,9.171223,4d3a024e0333a093ef4c5034
i Giovedí del Design: Alla Castiglioni,General Entertainment,Via Savona 11,45.45128194,9.17169904,4f187194e4b0f22afda70ae4
Nel Posto Piu Trash Del Mondo,Nightclub,,45.450676,9.171595,5132a82de4b06242f648a567
Medoro,Lounge,,45.451115,9.171509,56fa5735498e8c9d108ffddb
Minimarket Milano,Nightclub,,45.45111649,9.171509228,4f652e3be4b0ce431de070d7
L'HUB textile work shop,General Entertainment,Ripa di porta Ticinese 69,45.45049265,9.169197099,4f23bb2be4b0b653a2d366b7
Circo Delle Pulci,General Entertainment,Piscine Argelati,45.44943972,9.172147898,518f7f1e498e9c894f42f5f7
jUICY,Nightclub,Alzaia Naviglio Grande 54,45.450427,9.171021,51784587e4b0ecd77da3d3c6
Lomi Lounge Bar,Lounge,,45.450727,9.170202,5ad8f6fe178a2a4d6b6c1bdf
WAL studio,General Entertainment,,45.453783,9.170676,57162792cd10e209049a2498
Roll over Beethoven,Nightclub,Via Borsi 9/2,45.45367201,9.168915865,531bb661498ed1a93af497aa
Live Legend,Music Venue,,45.4529096,9.169508429,56c6c671498eb30d80afd004
L'ARTè,General Entertainment,"Bergognone, 7",45.453705,9.169006,4d8f645ed00a6ea898facd4f
Officine,General Entertainment,,45.452551,9.172543,514e085ce4b0eeb9fe3f28e9
Wrapspaces,General Entertainment,,45.453839,9.169124,4f8e9287e4b019b4976bfc30
Laundry,Music Venue,"Via Vigevano, 20",45.45311418,9.172311574,4da4971c7ccc816e163d957b
Talent Almanack by RobilantAssociati,General Entertainment,via Vigevano 41,45.4531016,9.171438217,4fabe0f4121da90b7ede1c2a
Dom Station,Lounge,Via Casale 3,45.45256992,9.170124577,4d79eea47418a143288bc35b
Milano 1909 Members Club,Lounge,Via Tortona 3,45.45373119,9.169034972,528a6c6011d2e4c3c59c2f62
Zona Tartina,Miscellaneous Shop,Via Voghera 4,45.454419,9.168729,4da9ba9a8154abafc29ab8c0
Chivas Members Club,Lounge,,45.453768,9.168605,52939aed11d2a0abad351a0b
Terrazza 14,Lounge,Via Tortona 14,45.453828,9.1686,4e0b35f86284a62b5bbf0560
La Cueva,General Entertainment,Via Vigevano 2a,45.45293177,9.171891179,50f70303e4b0cdce571be752
Blues Canal,Cocktail Bar,"Via Casale, 7",45.45154312,9.170756002,4b05887af964a52048c822e3
Jolly,Nightclub,,45.454092,9.170793,4ce4550cc850721eb194c28a
Music Togheter,Music Venue,,45.45383,9.171643,588c706cea1c0d436975fd9f
Dojo -Hara Yoga,General Entertainment,Via Savona 10,45.457347,9.168909,4cb8a701bac9370444d0de7c
Narciso & Boccadoro,Lounge,Via Savona 12,45.45573923,9.168450128,51801d5fe4b003188a253947
Interior Design Cafè,Lounge,Via Arcangelo Ghisleri 1,45.45729629,9.170180392,561ec816498eb307015ff6c1
Lit de Chouchou,Nightclub,Via Savona 1B,45.45575076,9.170317845,50773be1e4b05f2fb7032778
Marangoni's party,Nightclub,Limelight,45.456076,9.169813,5165fe72e4b0baf4dfb9c3cd
Bubbles Studio,General Entertainment,,45.455936,9.168631,4f855b49e4b064ded77fb5df
Papiniano Palace,Lounge,,45.45729625,9.171214744,4fe88c49e4b0af2e683b9cf6
"Radio Dynamo ""ON AIR"" @ DesignLibrary Café",Radio Station,Via Savona 11,45.45526951,9.168468967,4ef3296fc512c31f1b892360
#plastiparty + Cecilia Cattoni Food Design,General Entertainment,via Savona 11,45.45545321,9.168508582,4f4e536fe4b0ef284c32b864
Teatro Libero,Comedy Club,,45.45593024,9.168500867,4bed03006e8c20a144d46f61
i Giovedi del Design: Vitamina D,General Entertainment,Via Savona 11,45.455252,9.168372,4f0f16cce4b06654e48a7c5c
Ciuccia Fuffa,General Entertainment,Via Savona 17,45.45517221,9.167864174,4df129cad1647076f63bf213
Circolo Filoellenico,General Entertainment,,45.457595,9.171636,519bc1cb498e389000534275
Bonac's,Lounge,Via Cesare Da Sesto 19,45.45838663,9.171706438,55603243498e1b698160f278
Les - Ufficio Tempo Libero,General Entertainment,,45.45860677,9.169889183,4ea157d902d529c11623ab46
Agenzia Viaggi Numa Pompilio,Lounge,,45.459956,9.169674,51e85ff9498e426b9c830da6
Agenzia Viaggi,General Entertainment,,45.459968,9.169676,519a770f498eede654020d64
Dedalo Teatro,Movie Theater,Via Ariberto 25,45.45936023,9.172277749,4e7c7159185088025bb30ee3
Narnia,Lounge,,45.463797,9.169002,516bf5a6e4b0169e225c55a1
Stanza N 5 SCALA 6 Corso,Lounge,,45.461772,9.169308,4f644df7e4b06561249f4880
Casa Korvelyte,Lounge,Via giambattista vico 12,45.463145,9.171146,4dc65fc745dd264552887d18
Teatro delle Marionette,Theater,3 Via Olivetani,45.46313,9.17015,4b058880f964a5201eca22e3
Manchester,Music Venue,,45.4643546,9.169237,51463c50e4b02dd32db0555e
Spazio MiMat,General Entertainment,Via Morozzo Della Rocca 12,45.465171,9.168443,56ec2926498e6f886538043a
Teatro San Carlo,Theater,via Morozzo dells Rocca 12,45.465153,9.168333,4cc99628786e4688f5f49409
IMMPRONTA,Piano Bar,"Piazzale Baracca, 2",45.466071,9.169509,4c593eac67ac0f4716b3034c
Centre Culturel Français,General Entertainment,Corso Magenta 63,45.465844,9.171812,4b058881f964a52042ca22e3
Circolo Arci Magnolia,Music Venue,,45.4690954,9.1688154,57761f14498e0799f1c8407c
Circolo Anarchico Ponte Della Ghisolfa,Music Venue,,45.4690954,9.1688154,57931fd2498e9d6cd3ce23ae
Reggae Rock Festival Bussero,Music Venue,,45.4690954,9.1688154,576f8679498eb5f8a03708ce
Private Party Milano,Music Venue,,45.4690954,9.1688154,5b1e2957a87921002c2386f7
Ca' Bianca Café,Music Venue,,45.4690954,9.1688154,5ac3346f7269fe2798809834
Festa Della Magnolia,Music Venue,,45.4690954,9.1688154,57ac3116498ee8e345abb52f
"Arci Paz, Castano Primo",Music Venue,,45.4690954,9.1688154,587f1ba591680266c0169fa0
Kitsch Bar,Lounge,"Corso Sempione, 5",45.47691554,9.170824508,4bf6c817508c0f47e5d93c31
Midnightrun 3,General Entertainment,,45.47554721,9.172527065,51439eb6e4b0554c1d14032b
Huggy Bear,Lounge,Corso Sempione 3,45.47648634,9.171412336,4be4769fd4f7c9b641302420
Le Voyage,Lounge,,45.477814,9.169702,564acd7c498e2a88152124e1
Pillow Fight,General Entertainment,,45.47539,9.172683,4f8990ebe4b0089de8fee979
Shootersdream,General Entertainment,Via mameli,45.476336,9.171631,4da1f0a1b521224b7738ffed
House Hunters Milano,Lounge,,45.476553,9.170538,544ee220498eefae2ea225dc
Cream Lounge,Lounge,"Corso Sempione, 5",45.47662738,9.17110271,4bf140316f8aa59345a5c23c
Presso - Kook Sharing,Event Space,"Via Paolo Sarpi, 60",45.48102467,9.17086053,515d3f3de4b08c3124a20a07
La Chiesetta,Cocktail Bar,Via Paolo Lomazzo 12,45.481615,9.172683707,4bb3a198a32876b0b1fc01fe
Cipensoio,General Entertainment,,45.481574,9.171303,5148d4e3e4b0d085a2d450dc
Jazz Café,Lounge,,45.47858741,9.168077677,51004f4ce4b055a6ffc970a3
occupy bernardo,Comedy Club,,45.48166656,9.17160511,4fa25fabe4b0c2f1031fa3c6
Spazio Il Fischio,General Entertainment,Via Procaccini,45.480709,9.17206,4bf18c1d78cec9281d88ba86
Best Sound,Music Venue,Via bertini 13,45.48234371,9.171165684,4c971ee238dd8cfaf1fde062
Sony Entertainment Redefined @Milano,Electronics Store,Via Procaccini 37,45.482973,9.170201,4d75ec110e3f6a31f1242f66
Milano Lounge Cafè,Cocktail Bar,Via Giulio Cesare Procaccini 37,45.48287674,9.170211284,4bd764c20b779c74821205a0
Caffè Caribe,Nightclub,17 Via Giulio Cesare Procaccini,45.48381552,9.17200254,4b05887af964a52060c822e3
capodanno cinese,General Entertainment,Piazza Gramsci,45.481927,9.168349,56c08484cd10904e69e0a0e4
Gaia Gaudenzi,General Entertainment,,45.48256427,9.169987996,522dedd211d234f15533c7be
Musicopoli,General Entertainment,"Via Monviso, 10",45.48437948,9.1688389,4e7deb79f5b93371fce48a48
Suonificio - Studio Registrazione Audio,General Entertainment,,45.486953,9.169123,4d9c38efb2bd3704980e114b
Residenza Di Maestro,Rock Club,,45.490515,9.172248,506d6b19e4b0a3f3b2e91843
Scimmie Nude,Comedy Club,,45.489754,9.16974,51cded35498e9830f16ff1ef
Zucchi Studio,General Entertainment,,45.48988075,9.168721058,4fad81d8e4b09c3c72990bd9
Circolo Dei Malfattori,Lounge,,45.44430223,9.176285597,50ce0d1fe4b0d870d83857d0
laboratorio teatrale Anime Antiche,Theater,via Ascanio Sforza 81A,45.44267273,9.175927162,51ab8abf498ec578b05785c0
Chantilly HQ,General Entertainment,Via Lecchi 16,45.44430329,9.1731156,50b41f1ee4b03acff4dea896
PuertoAlegre,Nightclub,Via Borsi 9,45.44325117,9.176044199,4f91dcf5e4b023d6c76a6ace
Monodynamic Studio,Music Venue,Via De Sanctis 12,45.442712,9.173124,4cb81b1bdd41a35d1514d8a0
Salon Parisien,Nightclub,"via Ascanio Sforza, 84",45.44185822,9.176059137,4d4499b159ca2d4352fb1d0f
Connie Douglas,Lounge,Via Bordighera 15,45.44178484,9.173799446,4b058879f964a5201dc822e3
Casa della musica,Nightclub,Via Ascanio Sforza 81,45.44187242,9.175835893,4cb0eeccc5e6a1cd85aad9f6
Scuola Di Teatro Anime Antiche,Comedy Club,Via Ascanio Sforza 81/a,45.44220012,9.176977874,4dea9d8252b11677f0410dc7
Cox 18,Music Venue,,45.4457349,9.17694,56f247ec498e93a37ea8d380
Apollo Club,Lounge,"Via Giosuè Borsi, 9",45.44747773,9.174558567,57e19d3b498efc11824bbcf8
Circolo Mamozzo,Lounge,Via Darwin,45.44548798,9.175674438,5255523411d2fe86afea6297
Sacrestia - Farmacia Alcolica,Cocktail Bar,Via Conchetta 20,45.44568077,9.176664111,4b587e69f964a520795a28e3
Casa Matilda,Lounge,,45.444872,9.176792,5a4567424acb1973fb641128
Il Torchietto,Italian Restaurant,"Via ascanio sforza, 47",45.44719535,9.176929917,4d7fbf48564b8cfa2cbe0b65
Tumbao,Nightclub,,45.444788,9.176136,517ae615e4b0189bde62103c
Cosebelle Magazine 1st Bday Party,General Entertainment,Via Conchetta 20,45.44572359,9.176648282,4ef39f4549010be35d82a87a
Chiarezza,General Entertainment,,45.444999,9.174187,4bc4a1242a89ef3b618ff688
Planet 50,Nightclub,52 Alzaia Naviglio Pavese,45.44647813,9.176440902,4b05887af964a52050c822e3
Nidaba Theatre,Rock Club,via Gola 12,45.44899736,9.175622904,4b4e012ef964a520cfdd26e3
Sixth Sense,Nightclub,4 Via Emilio Gola,45.44896,9.176633,596e997659fe5c3ad7240284
Capitano,Lounge,Via Alzaia Naviglio Pavese 31,45.44898,9.177379,5b1420785a2c91002cab8da1
game over,Nightclub,,45.44846725,9.173132896,5051094ce4b0c32d8c4658a1
TeatroCinque,Theater,"Via Ascanio Sforza, 37",45.448678,9.177416,51685a59498e48080381b8d7
MoneyOnTheFloor,Nightclub,,45.45016,9.174624,53223502498e2362a047689a
Folk Enotecheria,Music Venue,,45.4497048,9.1744454,57109a74498e1b1f9b07b8e6
Lovedom Headquarters,General Entertainment,,45.451115,9.173537398,55b3528a498ef7058e48bf14
#cookebook,General Entertainment,Alzaia Naviglio Pavese 16,45.44997943,9.177424504,528df010498ea4889bda4238
El Sitio,Nightclub,Via Corsico 3,45.45218442,9.173592768,4ef2571cb8f7f381f6d4085e
La Cueva (no art gallery),Music Venue,"Via Vigevano, 2/A",45.452723,9.175522,51704b0b498e41309a78a089
Bruttoposse,Nightclub,,45.452536,9.175727,532231de498e4d362acba50e
Brandstorming temporary store,General Entertainment,Via corsico 3,45.45244,9.1733502,4c14e3cd77cea593f93bd160
Elicriso,General Entertainment,,45.452846,9.175549,5166038be4b0cdde31829f1b
Nastro Say Yes Milano,Performing Arts Venue,Via Corsico 3,45.45232737,9.173442959,4f91af7be4b09347d9c48142
Casetta del Naviglio,Lounge,,45.45142173,9.173240519,4e7514341838f91889b10697
Souare garden,Lounge,,45.451724,9.17441,567dc115498e0671d9ff0567
Sofa Cafe,Cocktail Bar,Ripa di Porta Ticinese 7,45.45203287,9.176716805,4f5aa1c9e4b086681a5e5149
Loft54fd'c,Lounge,Viale Gorizia,45.453984,9.174822,57ab5b8e498e2efa279e7d04
The Do-Over by adidas Originals,General Entertainment,Ripa di Porta Ticinese 21,45.451394,9.175296,4e7f19da775b63f7d78c56f6
iNStradaMI,General Entertainment,via Corsico,45.45225259,9.17345593,52627bd411d280760e47fdbc
Elitabar h17-02,Cocktail Bar,Via Corsico 5,45.45205051,9.173561854,5231eabf498ea763602c877f
Acerrá,Nightclub,,45.452297,9.173316,4fb5137de4b06fa0ebef3f03
Zog Live,Performing Arts Venue,"Ripa di Porta Ticinese, 37",45.45162499,9.17393112,4cf188bbc9af6dcbf54d9a7f
Square Garden,Lounge,Naviglio Grande,45.45160365,9.174087355,5686fd72498e927bced269b4
English Conversations,General Entertainment,,45.453945,9.176542,4e835e4730f88fdf8695aac0
Party Room Di Massimino Dei Navigli,General Entertainment,"Ripa di Porta Ticinese,21",45.45188299,9.174729089,4e3517b28877beb5e9a8302b
Installazione Hana,General Entertainment,Via Corsico 3,45.452259,9.173421,4f8f370de4b068786bdc8d75
¡Más!,Cocktail Bar,Ripa di Porta Ticinese 11,45.45207271,9.176382066,4b914379f964a52030ae33e3
Rimmel CAB,General Entertainment,,45.45275769,9.175352402,51645289e4b0b66afe34a83b
MINI Living,General Entertainment,Via Vigevano 18,45.45346946,9.173081805,570cad1d498eb3e29428dcb8
Le Biciclette,Cocktail Bar,"Via Gian Battista Torti, 2",45.45788906,9.17735539,4b058879f964a52022c822e3
Teatro Ariberto,General Entertainment,Via Daniele Crespi 9,45.4573584,9.1742627,4b058880f964a5201dca22e3
Circolo Arci Cicco Simonetta,Comedy Club,Via Cicco Simonetta 16,45.4562891,9.175637273,4c991346d4b1b1f7258fc435
Manatí,General Entertainment,Via Alessi 2,45.456014,9.176784,574cb09acd10c941118528bf
Revolver,Cocktail Bar,Piazzale Cantore 3,45.45561675,9.174089895,4bb512952ea195210df2a92f
Germi - Luogo di Contaminazione,Social Club,Via Cicco Simonetta 14/16,45.456431,9.175749,5d9cb6b35f00890007190a93
Numaplayground,General Entertainment,,45.457843,9.176673,5134c3bee4b04f7751c28fe1
LabArca,Theater,"Via Marco d'Oggiono, 1",45.45711,9.175691,59c413ac2079556b58a5e2ed
The Terrace M3C,General Entertainment,Via Cesare da Sesto 14,45.457491,9.172837,5169ba42e4b0aeffb6659102
Metropolis recording studio,General Entertainment,,45.455653,9.17738,4faa7f9ee4b04f8c94365fa3
Mind Puzzle,General Entertainment,Via Lanzone 31,45.45985668,9.174253703,55d64206498edb650daef636
Le Suite,Lounge,Via Carroccio,45.46062094,9.173700915,4c4028db3735be9a086b16a4
Grey's Room,Nightclub,Via Carducci 35,45.4638109,9.174710218,54309e42498ed6ec05400060
Bar Enni - Caffè Caribe,Lounge,,45.463984,9.173035,50f9b46be4b0d5fdfb53c7dc
Change Performing Arts,Performing Arts Venue,Via vincenzo monti 12,45.467307,9.174822,4c973668533aa0939cd7d745
Porto Di Mare Laursen,General Entertainment,,45.46562314,9.175405113,4f0dfbe9e4b08f6698eeadcb
Orchestrina allegra,Concert Hall,Piazza Luigi Cadorna,45.47053113,9.174517529,51078984e4b068357c0b3d44
La Triennale di Milano,Art Museum,Viale Emilio Alemagna 6,45.47224262,9.173506681,4b05887df964a52057c922e3
Bar Bianco,Cocktail Bar,"Viale Enrico Ibsen, 4",45.47354633,9.177277289,4bf2c4adaf659c74ae09d847
Old Fashion,Nightclub,"Viale Emilio Alemagna, 6",45.47294726,9.173743662,4b05887af964a52027c822e3
Teatro Continuo,Theater,,45.473294,9.175267,5d42d3b661c17f00080e1c13
Cavalli Club Milano,Nightclub,Via Luigi Camoens,45.47340273,9.173201306,4b058879f964a52002c822e3
Club Haus 80's,Lounge,Parco Sempione,45.47353615,9.177434219,4dd02683d4c065592fa934a6
Just Cavalli Cafè,Lounge,,45.4733051,9.173080847,536e0476498e4e19faaff737
Nesquik 40,General Entertainment,,45.47318889,9.172916223,4e918b29d3e3187fc35190c0
Camparitivo in Triennale,Café,"Triennale di Milano, Viale Emilio Alemagna, 6",45.47252692,9.174585187,4bdc3965c79cc928ac9c85e9
Popstarz,Nightclub,,45.47300127,9.17401232,4f99dc1ee4b0c1fd75314d8b
Byblos Fashion Show,General Entertainment,Castello sforzesco,45.47314562,9.176539324,4f4a3cdde4b082dc5829523a
Teatro dell'Arte,Theater,Viale Alemagna 6,45.47216977,9.173884392,4bfacdea328d76b03dfc14ec
Il Club delle Mamme,Building,"Via Canonica, 20",45.47809058,9.175955057,4eb2621e4fc61d1983242475
D.Work,Piano Bar,,45.481088,9.173313,5d752dca6c160b00082b008a
Studio Area 22,General Entertainment,Via giusti 22,45.4802379,9.17612392,4df373fc7d8b18e1722ee3b9
米兰之夜ktv,Nightclub,via signorelli 2,45.481402,9.173831,58496a3bca10700aaeddb8ea
Circolo Alessandro Volta,General Entertainment,Via Giusti 16,45.48023185,9.177003707,4cae132dd1f8b60c997474c6
StudioArea22,General Entertainment,"Via Giusti, 22",45.48014055,9.176467857,51aa4b9b498e1786d0476091
Centro Yoga,General Entertainment,,45.48064371,9.174451306,4da7f20843a12d0c26457eb3
Melros Production,General Entertainment,Via Paolo Sarpi 21,45.481085,9.17659,4cdbc4d34006a1431865dab2
Radio Kiss Kiss,Radio Station,Via Aleardo Aleardi 14,45.48257735,9.173733204,4f5770afe4b0720e069e173f
L'Aperitivo del Milanese Imbruttito,Nightclub,Via Procaccini 4,45.48269,9.176743,5167241ae4b0b6acd58fd744
Accademia del Gioco Dimenticato,General Entertainment,,45.484346,9.17565,52d15fc3498eb608a1b2f073
360 Fx,General Entertainment,via Signorelli 4,45.48184311,9.173492136,4cda6e3f958f236aedc1a603
Cattedrale Fabbrica Del Vapore,Rock Club,,45.48397074,9.175633848,4d8d06806174a0932933a7e3
Il Tram della Cesira,Nightclub,,45.48491669,9.174776077,50687cf8e4b0058e9da242a9
Byblos Milano,Nightclub,"via Messina, 38",45.48626919,9.173948138,505b653ce4b04971505b25d6
B38 Club Milano,Nightclub,Via Messina 38,45.48622624,9.173828549,59f470b581635b6a63c4191c
Tempio Del Futuro Perduto,Cultural Center,Via Luigi Nono 9,45.486494,9.174853,5b2d84a5b6eedb002cf6c74f
RAM Studios,General Entertainment,Via Luigi Nono 7,45.48534443,9.175956054,4f218ab0e4b0e2de57dcf539
Evasion Escape Room,General Entertainment,"via Principe Eugenio, 22",45.49001964,9.174030249,56100960498ebe207b01767c
Dogana Di Milano,Concert Hall,,45.49404906,9.177543329,559ab18d498ef5a274e88271
Halloween Party,General Entertainment,"Via Francesco Brioschi, 43",45.443293,9.1811902,4ccde48c063a721e3951979a
la segheria,General Entertainment,Via Meda 24,45.44424438,9.17873764,516d9aabe4b0d2a1839d241b
Spazio Ctas,Theater,via pomponazzi,45.441961,9.181324,4dc6e49ab0fb5556cd14e782
Casa del popolo elettronico,Concert Hall,Via tibaldi,45.4443,9.18086,54d206e1498ec1d9d318b2bd
Teatro Caravaggio,Theater,,45.44390087,9.179855511,4e0cdad1d4c07c82a2e06c41
Spazio Eventi la Segheria,Music Venue,via Meda 24,45.44306315,9.178897389,4ddaa7e87d8b3226643b84b7
La Fabbrica dell'Esperienza,Theater,Via Francesco Brioschi 60,45.44164397,9.181580564,52ab22b1498e500541a58dc8
Utopiabāā,Theater,"via Pietro Pomponazzi, 21",45.442142,9.181169,4feb5a6de4b061f7e61dbcd7
Transito,General Entertainment,Via Pomponazzi 1,45.44156,9.179441,507c66d3e4b0abb0a087c14b
Auditorium di Milano,Performing Arts Venue,Largo Mahler,45.44641957,9.179187136,4b058881f964a52048ca22e3
CHE studio,Concert Hall,Via Brioschi 24,45.445872,9.180294,510bb3ebe4b01d3ae2438a86
Rainbow Kids,General Entertainment,,45.447614,9.178723,58637742e386e329a4ba6f65
Marcello Happy B Day Party,General Entertainment,,45.445109,9.181824,4fe8d1f9e4b0f742f957d244
The Beaver Brothers,Nightclub,Corso San Gottardo 42,45.4479271,9.179219306,51309b1de4b0a08cc4156805
Boteco Brasileiro,Lounge,"Via Ascanio Sforza, 31",45.449242,9.177497,5782d44c498eb82e0f99117b
Baby Farm,General Entertainment,,45.449643,9.17938,5884c93c4bafb72b41512d4e
Teatro Cinque,Theater,"Via Cardinale Ascanio Sforza, Milano",45.44866997,9.177526527,4f942181e4b015eb3e22932f
DCS IHQ,General Entertainment,,45.450819,9.180252,523d38b611d26840a95d6904
Brasil Samba Music,Music Venue,4 Via Emilio Gola,45.44873468,9.177529838,4b05887af964a5203fc822e3
villa rahnema,General Entertainment,,45.44958365,9.177634266,4ffc97dbe4b0be81cf57d83f
Centro Studio Attori,Theater,Via Ascanio Sforza,45.448666,9.177681,4ec2b87bb8f7a3b7f9664245
#cookebook,General Entertainment,Alzaia Naviglio Pavese 16,45.44997943,9.177424504,528df010498ea4889bda4238
Corso San Gottardo 15,General Entertainment,,45.4505415,9.180251203,51717191e4b0128d43fc6c37
Stardust Factory,Music Venue,Corso di Porta Ticinese,45.45456167,9.180525541,4eb33082a17cab6127e27d31
Carosello - Spot Conad,General Entertainment,Piazza Sant'Eustorgio,45.453733,9.180695,51803acb498e6399de5b9297
What Women Drink,General Entertainment,,45.454588,9.180595,505a0fd2e4b09176b44e75cf
Coppa Cobram: l'inizio.,General Entertainment,,45.45240021,9.180150986,50558d37e4b09a662dd60614
PianoLink,Concert Hall,,45.45209,9.181939,5713ab15cd103d0071d00c98
Il Ricovero Delle Anime,Lounge,,45.45160544,9.180731869,4f4e7c4be4b0577d8200ea0c
The Impossible Society,General Entertainment,Corso Porta Ticinese 107,45.453958,9.180462,56771063498e5b59aac9e935
stradina di st. eustorgio,Music Venue,piazza sant'eustorgio,45.45325213,9.18109417,4f744fb97716f0913c32c01b
iNStradaMI,General Entertainment,via Corsico,45.45280075,9.180546761,52627bd411d2f438d7290d5f
Bridge Milano,General Entertainment,,45.457728,9.179081,51e2ce8c498e129a746cdd91
Ralph's,Cocktail Bar,Via De Amicis 4,45.45787713,9.18091456,5176c888e4b0d40cc5610f9a
Coquetail,Lounge,,45.456402,9.180796,4c9bb29a9975a143eb8d2bcf
Orchestra Sinfonica di Milano Giuseppe Verdi,Opera House,Largo Gustav Mahler,45.45709152,9.180868087,559dab0b498e78a87b59f130
Silent Disco,Nightclub,,45.45766,9.181284,5234f061498eda22b043c862
Tube Club,Nightclub,Corso di Porta Ticinese 30,45.457973,9.180626,5914a016dd70c523e616d42f
Casio G-Shock Beat Event,General Entertainment,,45.456393,9.18073,5170104be4b092fc77ac66eb
Teatro Vetra,Music Venue,,45.45704793,9.18117801,56dbde62498e53f5ff92e7dd
Mono Studio,Music Venue,,45.45653895,9.180700028,4ca1e53e46978cfafeacbf7f
Via Arena,General Entertainment,Via Arena,45.45503496,9.178142818,4cefbce57b943704dca73453
Blackout Club Milano,Nightclub,32 Corso di Porta Ticinese,45.458257,9.181057,5bda89a36adbf5002c166861
Via Circo 12!,Lounge,,45.4602307,9.1786257,4f95463be4b04c0ca05b4ead
Teatro Alle Colonne,Theater,Corso di Porta Ticinese 45,45.45813353,9.181432073,4d42ac7c90f388bf84254c01
Il Teatro,General Entertainment,,45.45954013,9.180227134,4fe57d58e4b0b901afb33c66
Archivio Teatro alla Scala,General Entertainment,,45.460679,9.181993,53a058fc498efdb7c04588c3
Teatro Arsenale,Theater,via Correnti 9,45.45945365,9.179931806,4c499eb09e3e2d7f89870349
L' Espace Privé,General Entertainment,Via Del Torchio,45.46047406,9.181043157,4ee54e3129c220f9728dd7c7
Philipp Plein Casino,Nightclub,,45.45894076,9.179742701,51c624a0498e32a317388e3b
Prina - scuola di musica,General Entertainment,,45.459539,9.181284,5261682f11d256bb9ddb5cac
Scottadito,Lounge,Corso Di Port Ticinese 32,45.458201,9.180956,563e7b9ccd100389c08da7a4
HFFA,General Entertainment,,45.461984,9.181866,5076f21ee4b0214d6503d555
Insolito Cinema,General Entertainment,,45.463566,9.179164,51e59563498eef8b5554a3d5
Funlab Workshop,General Entertainment,"Via Gorani, 5 (Cordusio)",45.46454027,9.181362391,5237ac1b8bbdddd1d132f344
Teatro Litta,Theater,24 Corso Magenta,45.46600347,9.177762327,4b058880f964a5200eca22e3
Sala Cavallerizza (teatro Litta),Theater,,45.46560659,9.177963878,4df513026284fefe8fc7ed35
Teatro Dal Verme,Theater,"Via San Giovanni sul Muro, 2",45.46710499,9.181457551,4b058881f964a52082ca22e3
spazio cairoli,General Entertainment,,45.466335,9.181955,542bb737498e649a567c0cd5
Claustrophobia Milano,General Entertainment,,45.46793,9.178616,56db0d8bcd103f495eb6f007
Forum ANES,Theater,Corso Magenta 24,45.466623,9.1776,4e9e871129c244b4ef236716
Revolution Dept,General Entertainment,Corso Magenta 7,45.465499,9.179741,5579b55a498e37ac9110975d
whatsapp ina bak,Comedy Club,,45.47003937,9.179305077,5478a423498e40507020b261
Babbo Running,General Entertainment,Piazza Castello,45.46936059,9.181684699,4eeda51be5faa560f172e556
Deejayten Village,General Entertainment,,45.47130104,9.177889939,52591462498e7ef37dca3d18
"Caccia Al Tesoro "" Scopri Milano Vinci La Spesa""",General Entertainment,Via Beltrami,45.468672,9.181866,50790fa7e4b0c31686e141f6
Roccobarocco Fashion Show,General Entertainment,,45.47007117,9.179810609,4f4646d2e4b07a6329c876d9
Strasingle,General Entertainment,,45.469267,9.181356,51c6ab4d498ebaa35dd691b2
MilanoBookCity,General Entertainment,,45.4695034,9.180639267,5467753c498e74d3bc189cdf
Milano Film Festival,General Entertainment,,45.47172396,9.178391282,55f865f7498e67cfe93029d1
Capodanno Celtico,General Entertainment,,45.47180125,9.178569228,4ccc6abb72106dcbc6d09b99
PinC Mondiale,General Entertainment,Viale Gerolamo Gadio,45.47210958,9.178776741,4c164366a9c220a1fc525a9d
Heaven,Nightclub,17 Via Fiori Chiari,45.4730313,9.181398795,4b05887af964a52052c822e3
Piccolo Teatro Strehler,Theater,Largo Antonio Greppi 1,45.472053,9.182118202,4b058880f964a5200bca22e3
Caffè Etiko,Lounge,,45.477615,9.177806,56f1992d498e60b366a93568
sforzinda,General Entertainment,,45.4764,9.181,50bb35cde4b0e2256150f051
Slash@MilanoJazzin'Festival,Music Venue,,45.476479,9.177861,4e31bb38fa76634e16c46bab
Bombclub,Nightclub,,45.477856,9.181242,5a18a91b18d43b3a0c467665
Cafè Etniko,Lounge,"Via Luigi Canonica, 14",45.47761755,9.177530475,4b058877f964a5206fc722e3
Coccoluto@milano jazzin festival,Jazz Club,,45.47727716,9.179819616,4e3464906284ea7e10f5133d
Cornetto Summer Of Music Tour Parco Sempione,Rock Club,,45.475376,9.17816,51a0bea4498efd44c84a0c0e
Osteria di Porta Volta,Music Venue,14 Viale Montello,45.480126,9.179174,4b05887af964a52067c822e3
Ghetto YiLmazZ,General Entertainment,,45.478904,9.18084,50ceaa24e4b0ed7c4714294f
Reparto Cinema,General Entertainment,Via Niccolini 2,45.47920067,9.177647797,4d46cdff1911a09366ffeed8
bramante 32,General Entertainment,Via bramante 32,45.48117928,9.179801176,4fb12595e4b05b8b56c56091
HULU Lounge Bar,Lounge,Via Bramante 9,45.479273,9.179946,5d1d0df76d22da0023ebde62
Sarpi 6,General Entertainment,Paolo Sarpi 6,45.48180132,9.180089456,515deceee4b0944d8bdef989
Film Master Srl,General Entertainment,"Via Carlo Farini, 4",45.48304436,9.182228704,4e0896d06284d9ee92dc20f8
Avangard Event,Nightclub,Via Paolo Sarpi 6,45.482118,9.179932,515de811e4b020711eb24269
Spazio Sarpi6,General Entertainment,Via Paolo Sarpi 6,45.48201646,9.180068666,511e7f2fe4b0eaecfc23f35d
indiehub,Music Venue,via bramante,45.48257065,9.178019524,5247dfbc11d249341302e7dc
Boscaiola 14,Lounge,Via Della Boscaiola 14,45.49013938,9.182350915,51607784e4b027d8435fa340
De Sade,Nightclub,Via Valtellina 21,45.49427263,9.181770796,4b05887bf964a5206dc822e3
Area 21,Nightclub,Via Valtellina 21,45.49426082,9.181886768,503f885be4b081f565d45d1f
Club Haus 80's,Nightclub,"Via Valtellina, 21",45.49429581,9.181967047,523c800b049301ac0123ee0d
Le Cannibale Club,Nightclub,Via Valtellina 23,45.49418421,9.182127536,55f321f5498e93d5f9faacfd
Tibaldi 66,Comedy Club,Viale Tibaldi 66,45.44492213,9.185935832,4f6bb185e4b0dca2deb7d09f
Lardo&Bisaccia,General Entertainment,Piazza bibbiena 1,45.44531847,9.184904088,4d41dac189c3a143aa3df283
Officine cocktail bar,Lounge,Via Giovenale 7,45.44990691,9.184522558,579b9c5d498ee786362a8bf6
Fly Fisher Club,General Entertainment,Piazza Tito Lucrezio Caro 7,45.449406,9.183548,4dd5685fd1647fcf3e1948c7
M.A.C.,Music Venue,Piazza Tito Lucrezio Caro 1,45.44925686,9.183019154,552eaa0b498e978b40d2deae
Club Curti,Nightclub,,45.448044,9.185908,5c683f87065ef5002c149f00
Studi Televisivi Class Editori,General Entertainment,,45.45298179,9.185356485,4dfa0296b0fb0401c7f6ecf8
Festone Di MLGD,Nightclub,Via Calatafimi,45.453651,9.182939,515efc24e4b0a90e6ce091f2
Best.Club.Milan.Is.Our.AudiAllRoad,Music Venue,"Every Cool Place, Every Street, Every Party of Milan",45.452531,9.18681,4eaca594b80323ec921facff
Photo Art,General Entertainment,,45.45147512,9.184236779,518b6915498e6fdb0065e2dd
PJ House,Lounge,Corso Italia 68,45.452739,9.186276,4d30ce56619f6ea85dd23883
Eat.List Milano @ Tip&Coffee,Lounge,Via Wittgens,45.45737355,9.183782333,4d55b4dcb4deb1f79eb2077a
piano terra,Comedy Club,Via Confalonieri 3,45.45705795,9.186061859,511e9733e4b0e64a2d5cefad
TOM - The Organic Market,Nightclub,Via Molino Delle Armi 32,45.45674555,9.183933224,51158e1ce4b0e006a3bdf33c
Fondazione Gioventù Musicale d'Italia,General Entertainment,"Via Santa Croce, 20122 Milano",45.45644923,9.183366255,4f671fd1e4b0e30d22ff0bfb
Flying Circus,Nightclub,Piazza Vetra 21,45.45745667,9.183004182,4b05887af964a52023c822e3
Olympia Milan,Music Venue,,45.4566919,9.1839563,57036b74cd1091aff823759e
Volt,Nightclub,Via Molino delle Armi 16,45.45673674,9.184066395,5839016c44587f27e93b46da
Trekking Italia Amici del Trekking e della Natura,General Entertainment,Via Santa Croce 2,45.45667268,9.183182704,4faf7d81e4b02f54b87fe89f
Consolle Luke,Nightclub,,45.45657111,9.184553983,4f5a8c52e4b036906f47cf75
Ubi Maior,General Entertainment,Via Crocifisso 18,45.457191,9.185419,4da753a7cda1480291cdbe0c
Glamour Life,Coffee Shop,Via Wittgens 1,45.45771662,9.183975079,4e8ea445f5b90ec6782268d4
teatro philipp plein milano,Theater,Via San Vito 5,45.45900999,9.182326275,505e40bbe4b008a519638514
Mini Artfactory,General Entertainment,via gaudenzio ferrari,45.45820374,9.184257683,4e99cc54cc215f3adc8832f2
Teatro Vetra Milano,General Entertainment,,45.45924567,9.182531324,54ecdeb2498e12a95dcb3e73
Folder Theatre Company,Theater,Via disciplini 12,45.458282,9.18539,4ce2faf1910ea1cd0a32737b
Sala Delle Colonne Image Building,General Entertainment,,45.460315,9.183302,509b97b3e4b04527ff44de1e
#MINI Paceman Loft,General Entertainment,,45.4616987,9.185700764,513221ece4b0dc200b3b7411
Kinect For Xbox 360 Experience Truck,General Entertainment,,45.461566,9.185771,4e745e94d22d80eb32b64a7d
Accademia del Teatro alla Scala,General Entertainment,,45.46190074,9.182410061,4eea1d394901326b61766bd3
Cinema Centrale Multisala,Movie Theater,Via Torino 30/32,45.46204657,9.185953205,4b058880f964a5202aca22e3
Bubbles,Lounge,,45.463207,9.186017,562a7bf5498e154e03385a66
Sala Stampa Milano,General Entertainment,"Via Cordusio, 4",45.46481871,9.185210526,4bcd70abb6c49c74915e9591
Absolut İce Bar Milano,Nightclub,,45.46250203,9.186603128,50315bfbe4b0c518269ce255
Società Milanese per la Caccia a Cavallo,General Entertainment,Piazza Sant'Alessandro 6,45.46153645,9.185790028,4ce4084870236a31f334cc63
Creative Team @Mind Agency,General Entertainment,piazza San Sepolcro 1,45.461553,9.185813,4e6721c5e4cdfdecb029e7c1
Beautiful Information,General Entertainment,Via Dante,45.46654113,9.18458884,53186c6411d2e09af092a4a2
Le Banque,Nightclub,Via Bassano Porrone 6,45.46612,9.18679,4d8d4700d00a6ea84af39e4f
#broletto39,Nightclub,,45.46815777,9.184839903,51b8c93f498e269185923bd1
Chiostro Nina Vinchi,General Entertainment,Via Rovello 2,45.466771,9.185107,52984d06498ef27b0fe34872
Garden Gallery,Nightclub,3 Via Meravigli,45.46606918,9.184805818,4b05887af964a52064c822e3
Candy Bar,General Entertainment,Via Bassano Porrone 6,45.46615704,9.187062258,4f528678e4b0ddd8f72e6204
Auditorium Agliardi,Concert Hall,,45.466474,9.18243,4fa85822e4b07e184789d66c
Sionis,Lounge,Via Giulini 5,45.46704757,9.183945152,4d0518f6347da1cd48372f8f
M.I.B,Nightclub,Via Gaetano Negri 10,45.46532307,9.183467008,4e751e79b0fb9680330f519d
Piccolo Teatro Grassi,Theater,"Via Rovello, 2",45.46660517,9.184682428,4c7cc837aa3ba093039bab74
The Future In The Making,General Entertainment,,45.46633465,9.185881131,4f8daa47e4b0194668d37620
Goodbye Pernice Day,Nightclub,Piazza Affari,45.46523586,9.183126139,4ef0b6998b81e3067f8021cb
TEDxMilano,Theater,Via Rovello 2,45.466652,9.184875,51a9b3b7498ed257cdfc51b0
Via Bergognone 59,Concert Hall,,45.4676523,9.183003417,52400bcb11d23b2c5bf1aa45
Spazio Dante,General Entertainment,,45.46744886,9.183737,4bfac5ca328d76b095f114ec
Festival Mix Milano,General Entertainment,Largo Greppi 1,45.46669605,9.184682965,51c039217dd2bfd21ec17db2
Arci Ohibò,Music Venue,,45.4654219,9.1859243,59bf77e5fd9d73213eeae7b8
Manfredo Lounge Bar,Lounge,,45.466595,9.182984,582ef07aae97566eff6eca54
Charro Cafè,Nightclub,7-9 Via Santa Maria Segreta,45.46506974,9.184607675,4b05887af964a5204cc822e3
Circo Massimo,Nightclub,Milano,45.46570587,9.185258865,55fc8ce5498eb3a5d5123c7b
Trottoir (Le),Nightclub,2 Via Tivoli,45.471117,9.184165,4b05887af964a5202dc822e3
Pied-á-terre Narra,Nightclub,Via ponte vetero 11,45.46966058,9.185037017,56a93b7f498ec4b2409d3aba
Brera Outdoor Village,General Entertainment,,45.46833028,9.185400669,4f91b2e0e4b048074fad0e76
NAPKIN,Lounge,,45.47055215,9.184900246,4ecbbd7e722efb00f89f42e3
Scuola Musicale Di Milano,Music Venue,Via della Commenda 5,45.470614,9.1832503,5234784811d2e5a53e4750dd
Slava Snow show,Theater,,45.470708,9.184191,4ca4d6d6750ca09352e02467
Brera Garden Floor,Lounge,Via dell'Orso 7,45.46897229,9.186906239,4fabca9fe4b0d040d89222fb
heartspace,General Entertainment,,45.46893856,9.186308293,4f68c059e4b053c5171229b4
Circolo Di Presidio Dell' Esercito Di Milano,General Entertainment,"Via Brera, 15",45.47045291,9.186566824,51d5bd2e498e1be2d7e0ef2c
CLICQ-NIC DESIGNSTORE,General Entertainment,Via Ponte Vetero 13,45.46953643,9.185171127,4f83ee444fc6e38b2cc9d6d8
Leo Burnett Theater of Imagination,Theater,Foro Buonaparte 22,45.47142605,9.183607523,4cf76fa60a71224b70792393
MostraMI,General Entertainment,Corso Garibaldi 27,45.47303336,9.183668693,4fcb619de4b0b278fb4ae094
Mix Festival,General Entertainment,,45.47218098,9.182615675,4de12c3d18380dc4dd42519b
The Kids Road,General Entertainment,via Palermo 1,45.47487396,9.186247699,4f6af6d0e4b07199a8cdb67d
Kia Lounge,Lounge,Corso garibaldi,45.474584,9.183367,4ddbf39d22719ef54b557bd1
Temporary Store Opel Adam,General Entertainment,Corso Garibaldi 51A,45.47357468,9.183684498,515be003e4b04ff76807ba67
CAM Falcone E Borsellino,Music Venue,Corso Garibaldi 27,45.47306708,9.183423662,513b6547e4b0e8ef7e717575
TheLoft FoxLife,General Entertainment,Via Fiori Chiari,45.47195535,9.185577482,4df21761922e8e1ea8902f43
Martini POP ART Gallery,General Entertainment,"Corso Garibaldi, 65",45.474824,9.183331,51652e1be4b0c8ebf0145714
Fila Underwear Party,General Entertainment,Via pontaccio 19,45.472302,9.184745,4cb9ca4c7148f04daf57d8ab
Al Teatro,Lounge,corso Garibaldi 16,45.47290519,9.183760037,4ba5448ff964a520edf338e3
Erman's House,Music Venue,,45.471841,9.185938,4bec6b0549430f475fb107d2
Piccolo Teatro Studio Melato,Theater,"Via Rivoli, 6",45.47257028,9.18280943,4b05887ff964a52001ca22e3
The Club,Nightclub,"Corso Garibaldi, 97",45.47768291,9.18438031,4bd23e16462cb7139500dc07
Ray Ban Vision Night,Lounge,,45.478108,9.184915,51c34205498e3b8a818e78f7
Fidelio Milano Martedì Notte,Nightclub,Corso Garibaldi,45.47753159,9.184089243,4fa9c0f8e4b04f8c93f8ec1e
World Football Show,General Entertainment,Fiera Milano,45.477227,9.185528,4d021b18b82d721e6ba07634
Sky Temporary Store,General Entertainment,,45.477724,9.18437,5668204f498e567aa14aa343
Indian Cafè,Nightclub,97/99 Corso Garibaldi,45.47718715,9.185467144,4b05887af964a52036c822e3
The Tuning Show,General Entertainment,,45.477707,9.184743,50059625e4b0fb593299dfb4
Beige Milano,Wine Bar,Largo la Foppa 5,45.47813616,9.184662993,4b75d470f964a520cb272ee3
le spaiate!,Nightclub,,45.47768021,9.185098648,518423ca498e370b4576132c
PJ's Mansion,Music Venue,,45.477758,9.184327,54b8e63a498e705a5d408c11
18 Solferino,Café,Via Solferino 18,45.47499519,9.186879801,564cd5c7498e4d4402008e9e
Biblos,Nightclub,Piazza Coriolano,45.47637672,9.184476933,505ba6e3e4b00e37992d0072
Mostwanted,Nightclub,,45.47747579,9.184650375,51202b6ee4b002b6ea7d348d
Ex grazia neri,General Entertainment,,45.48163,9.18455,4e7e4e1cdab427fd1761dc2a
Convento,Nightclub,Corso Garibaldi,45.47996,9.185937992,4ee5d8bfb634710b8c391ed7
King Room,Nightclub,"Piazza XXV Aprile, 11",45.480731,9.186461,5c2b00506dcf04002c1f2cbc
Picnicing,Lounge,,45.478898,9.184241,4e857f2493ad386410581278
The Timberland Studio,Shoe Store,9 Piazza 25 Aprile,45.48109,9.186693,5bccf6a2d0a149002d8a11e8
HP Human Discount 12,General Entertainment,Cadorna,45.4794156,9.1845055,4db1b043432d3c2e968edb00
Bambù Lounge,Cocktail Bar,"Via F. Crispi, 3",45.48079966,9.185473051,4bf30b1f6a31d13a2533942e
70's,Nightclub,Viale Pasubio,45.481632,9.184558,51914b9e498ef3221503303c
esterni,General Entertainment,Via Pasubio 14,45.48139132,9.184409259,4f96d265e4b0efeae8c474f9
Rds Music Marathon,Music Venue,,45.480427,9.187032,5ac9c26d840fc22a3129f178
"Restaurant SmokeONE Lounge Bar + Hookah, Кальян, Shisha, Narghile",Italian Restaurant,Viale Francesco Crispi 6,45.48097929,9.185444713,5d7166defb02b20008665ac0
HP Human Discount 10,General Entertainment,Cordusio,45.479113,9.184116,4db1af97432d3c2e968ed5f2
Davai,Lounge,Largo La Foppa,45.48022,9.185687,56588642498eb4078edc6a00
Armani prive,Nightclub,,45.48118178,9.186279549,5047ef9ee4b076625becfe30
Golden Haze Studio,Concert Hall,,45.47982067,9.184674952,520718a411d2cb9324f30f2b
Sound Pills Studio,Music Venue,Voi Tito Speri 1,45.482908,9.18419,5166c0f5e4b0739f97132541
Cost Restaurant,Lounge,Via Tito Speri 8,45.48264116,9.184156628,4bb66061ef159c7458da75f7
Sunday Inn - Aperitivo,Nightclub,,45.48322599,9.185526058,526d5e6c11d2d4cc749b063d
Hollywood,Nightclub,Corso Como 15,45.48251689,9.187043746,4b05887af964a52025c822e3
Social Channel,Comedy Club,,45.481772,9.186526,50f409a7e4b0232ee59ab8c4
Pensalobien Cost,Concert Hall,,45.4825747,9.184114989,5117f550e4b04d760139be76
Lula,Nightclub,,45.482533,9.186615,517ef1e5e4b0eee6b18f775b
Olimpus Post Prod,General Entertainment,Via Varese 10,45.48199681,9.185018041,4f59d145e4b0a5f21438a5ba
Community Accenture Technology Solutions ATA Hotel,Lounge,,45.48294067,9.185275078,50c89b9be4b0e3c221d73963
Tocqueville 13,Nightclub,Via Alessio di Tocqueville 13,45.4825445,9.186395411,4b05887af964a5204ac822e3
Smoking Kills Club,Nightclub,,45.48248328,9.185411574,4e7d04f8b8f7ca135d913187
The Nani's House,Opera House,Viale Pasubio,45.481962,9.184056,4bae6bc7f964a52031b03be3
11 clubroom,Nightclub,"Via Alessio di Tocqueville, 11",45.48260105,9.186845435,53bc6e8b498eb6945fd3b172
11 Clubroom,Lounge,"Via Tocqueville, 11",45.48252282,9.18703268,4bc22ab6abf495218d17c293
Globalvideo,General Entertainment,,45.4829677,9.183818724,4f7eb5d5e4b05b3c3785a603
Alessandro Rosso Group,General Entertainment,Via Tito Speri 8,45.482852,9.185324,5240227111d28dc35243d927
take it easy club,Nightclub,,45.4825366,9.186594539,54b1ba4d498e3753abdd4b12
Loolapaloosa,Nightclub,Corso Como 15,45.48251524,9.187070554,4b05887af964a5202cc822e3
Spaziofarini6,General Entertainment,,45.4819972,9.184992,4eb51a88b8030fb582b52257
Maroncelli 14,General Entertainment,Via Maroncelli 14,45.48325102,9.183525209,4d3d72d7d625224bd4bd99fa
Gasoline Rock Club,Nightclub,Via Privata Nino Bonnet 11A,45.48273746,9.18531776,4b05887af964a52031c822e3
Pasubio16,General Entertainment,Viale Pasubio 16,45.482184,9.182507,4d89b54cd85f3704c5bfecdb
Pineta Club,Nightclub,,45.48204507,9.184772485,4f8b5755e4b00a6263a652cf
Planeta De Agostini,General Entertainment,,45.48274776,9.184728492,54a65881498e9a30913033e4
La Corona Latin Club,Nightclub,Via Valleambrosiana 5,45.48251109,9.186967473,53150d41498e915368e8ed99
Fashion Rio,Nightclub,Via Giuseppe Ferrari,45.48508376,9.183957251,4dd8532ac65bee535ac97b63
Soundpills Studio,Concert Hall,,45.482209,9.18398,52e934ac498ec89732972141
Tony Guy - Elleven,General Entertainment,,45.48251232,9.186780122,508d9836e4b0f38c01bf74ad
Pastrengo,Comedy Club,via pastrengo 12,45.48681638,9.186635,4cd157b401eaf04de5abbd5d
Spazio EscoAdIsola.it,Music Venue,Via Borsieri 41 c/o Nuova Acropoli,45.48583108,9.186930656,52128ef393cdf80456056675
casa della festa stef & cat,Lounge,,45.4869,9.186422,568c05b5498ec3ce21b0020d
Koro,Wine Bar,Via Pastrengo 16/18,45.4867044,9.185697721,52db1219498e40890df4148e
Teatro Verdi,Theater,Via Pastrengo 16,45.48678601,9.185906314,4d028794347da1cd80e71f8f
Messapika,Lounge,Via Alserio 3,45.491462,9.184598,52d9c799498e3c89e8e368f4
Life Club,Nightclub,Via Alserio 5,45.49103748,9.185814083,4cb85ae64352a1cd04d484f5
Small Cafè,Nightclub,via carlo farini,45.49129567,9.184354207,4d2dc9efcde68eec3746ca98
Razzputin,Music Venue,,45.49118019,9.184741716,4f46b5c1e4b0b0b998259d2a
Boscaiola 14,Lounge,Via Della Boscaiola 14,45.49013938,9.182350915,51607784e4b027d8435fa340
8,Comedy Club,,45.49048803,9.182571763,4ff5cd76e4b04619c6c2bf35
Hero Club,Nightclub,Via Al serio,45.49113622,9.18591684,4effb5309a520dfd66481d4d
nıkus!,Lounge,,45.491667,9.186494,4fa30e4de4b08536fee9bc3f
The Farm,Nightclub,Via Alserio 5,45.49093913,9.185887229,5055ca65e4b0c2107500944d
nipponya,General Entertainment,Via Medardo Rosso 16,45.49026879,9.184720516,4dea42e61f6e3ddebdc68471
Wanasah Narghile Caffe,Lounge,Porta Garibaldi,45.489427,9.183154,58862f2c561ded7f9091b5e5
appAlserio,Lounge,Via Alserio 1,45.491697,9.184556,509f92ede4b0cfcd3ab71be8
Alcatraz,Nightclub,Via Valtellina 25,45.49466524,9.182984057,4b05887af964a52037c822e3
Punto Flamenco,General Entertainment,Via Farini,45.49330428,9.184808424,5131eb58e4b0d576bf097a86
ClubHaus80's & MTV party,Nightclub,,45.494449,9.182896,4f947323e4b04b1ee2ec0bd6
Gate Milano,Nightclub,Via Valtellina 21,45.4943,9.182405,5c0c58ab475abd002c1ac473
TILT Headquarter,Music Venue,Viale Stelvio 53,45.49457324,9.18436268,4de57acdd4c09fc98b6972ca
Just This 005/ SETH TROXLER,Nightclub,"Via dei Fontanili, 2-20",45.4420284,9.188871,4d3a28d381258cfa1302a35f
circolo PD Open Bocconi,General Entertainment,,45.44188299,9.191165106,5536a547498eda0c11ce3b6b
Centro Sportivo Bazzi,General Entertainment,,45.44311066,9.187219047,4eabbf9293ad72a2dafa55d0
Bocciodromo Morivione,Italian Restaurant,via Bernardino Verro 2,45.44230312,9.188138463,4bd02d169854d13a5033f74d
Club 2.0,Music Venue,,45.445852,9.187825,52880f2411d2158e23c66694
Vermù,Lounge,,45.45093453,9.191309929,56df11bc498efe32fa38780c
B Students TV,General Entertainment,Via Bocconi 12,45.44987876,9.188734344,4d7f2997d4ef6a318c13703c
Radio Bocconi,Radio Station,Via Ferdinando Bocconi 12,45.44987156,9.188703598,4be3e19a21d5a59398221a11
biliardino privato,General Entertainment,,45.44901268,9.188140083,4f955fc8e4b0532d5f1be47d
Working Capital - PNI @ Milano,General Entertainment,Via Ulisse Gobbi 5,45.44930827,9.189237356,4e9bfdeee5e8dffcaefff6a5
yoga Terapeutico,General Entertainment,,45.4501152,9.190553665,4f9bb420e4b020e60f2abdc2
Canazza,General Entertainment,,45.4520258,9.1899813,4e7a4e9062e16841da405a43
Venti136,Lounge,"Via Röntgen, 2a",45.45168933,9.187481728,4dcba37ab0fbd92b293b976f
Dirk Bikkembergs Fashion Show,General Entertainment,"Corso Italia, 58",45.4542743,9.1877865,4dfeee87a809baedbd900a87
Amici landis,General Entertainment,PiazzA Duomo,45.457816,9.187662,508a834fe4b09bdc35bf8ce9
Musica Maestro,Nightclub,Via Emanuelandia,45.45784807,9.187968778,508a862fe4b00ac3c643d667
#TheOriginOfLove Album Release Party,General Entertainment,,45.457183,9.187822,505cc68ae4b0e4ac14c0a7f3
Duke Lounge,Lounge,Via Albricci 3,45.460963,9.189248,4bd81ad4e914a593256b52fa
Dellabellix's Terrace,Nightclub,,45.459924,9.189206,4fabf74fe4b00ae4ab678284
Centro Culturale Di Milano,General Entertainment,Via zebedia 2,45.46084334,9.187876579,4cc83b5efa03224b491e43ef
Mondadori,General Entertainment,Duomo,45.46085378,9.190186544,508a80d7e4b0f6951d2dbde0
Terrazza dei Cavalieri Milano,Cocktail Bar,piazza Giuseppe Missori 1,45.46077783,9.188657947,4dd58c27d1647fcf3e1cad8e
UEFA Champions League Trophy Tour,General Entertainment,Duomo,45.46456686,9.189003014,50538074e4b0ff6b6122c792
King Club,Nightclub,Via Maurizio Gonzaga 5,45.46155911,9.18908992,5666c6a5498e8f949ada5115
Benattico,Lounge,,45.46367804,9.187895411,4f8ce53ce4b00c10ebc61d5b
Terrazza Duomo 21,Lounge,Piazza del Duomo 21,45.46480592,9.189664295,55286cfa498e15f96df0088d
Shiling's Milano,Nightclub,Via Paolo da Cannobio 2 Milan,45.46201298,9.190953914,52e4367311d22d84e9e07abd
Pitbull,Lounge,Corso Como 11,45.463405,9.191771,5d5ae4c37474790007e1e543
MI AMI Festival,Music Venue,,45.4642035,9.189982,5ac333d47269fe2798803051
Olio Officina Food Festival,General Entertainment,"Piazza del Duomo, Piazza Duomo, 20122 Milano",45.4643918,9.188638496,4f256fa2e4b047657ab384f7
Mostra Il Vero e il Falso,General Entertainment,Palazzo Reale,45.46303909,9.190683379,512113bae4b06dc363dcae35
Creativa&MotivaMente,General Entertainment,via Vigliani 19,45.46427,9.18951,533032ad498e781e7409440f
Vuota Bavaria,General Entertainment,Milano,45.46405869,9.189419746,51150776d86c8121735dcbd4
Venus,General Entertainment,Milano,45.46271,9.189663,5639073dcd10008abd4b0fcb
Palazzo Giureconsulti,General Entertainment,P.zza dei Mercanti 2,45.46465473,9.188441547,5133687be4b03f29a2f45217
Time Club,Nightclub,,45.462465,9.190045,5e4f54a72b631a0008732e46
Nepentha Club,Nightclub,Piazza Armando Diaz 1,45.46257832,9.190379949,4bc7694d6501c9b6b8613e29
George Gershmann,Concert Hall,Piazza Del Duomo,45.464484,9.190418,51aa4d66498e09d847f51c04
Shot Cafè,Nightclub,11 Via Paolo Da Cannobbio,45.46237322,9.19066122,4b05887af964a5204ec822e3
Biglietteria MITO SettembreMusica,General Entertainment,Via Dogana 2,45.46332878,9.189237356,4fdf9d357bebe39bd888e156
Concerto Per Milano - Filarmonica Della Scala e Martha Argerich,Concert Hall,Piazza Del Duomo,45.463966,9.190293,575da478498e2b7bcc2daaeb
Milano A Memoria,Library,Piazza Diaz 7,45.46166671,9.189937865,4eea3a3d2c5bbde21832ce6f
Fencity,General Entertainment,,45.46273432,9.18708086,55646e5f498e8edc5696dae8
Foca Loca Club,Nightclub,"Via Flavio Baracchini, 11, 20123 Milano",45.46152002,9.190834315,4f7577ace4b0c0edd5829bf1
Top Town,Nightclub,,45.46156276,9.190987159,4fc9920de4b06737f75b5d70
Pussycat,Nightclub,"Via Gonzaga, 5",45.46170202,9.189028502,4f38476be4b039c3c361d892
Nephenta,Nightclub,,45.46260142,9.190075447,532e2749498e1c3c1769d59f
Brazil S/A Lounge Brasileiro de design e decoracao,General Entertainment,,45.46481325,9.188124188,4f8c445be4b055d232999f40
VENUS Night Club Milano,Nightclub,Via G. Giardino 1,45.46265907,9.189441204,5137f5e98aca9f50d289c211
principia,General Entertainment,"Piazza del Duomo, 17",45.464251,9.189003227,4da5cca3a86e226c26beceda
Radio Italia Live,Concert Hall,Duomo,45.46434354,9.18858313,538b8bea498e07706967c011
Chiamami Ancora Milano,Music Venue,,45.46386601,9.189631702,4dcd7f0f45ddbe15f8713ab7
Via Filodrammatici 2,Opera House,Via Filodrammatici 2,45.46695323,9.189470607,513f5191e4b08446430953b5
Associazione Amici del Loggione del teatro alla Scala,General Entertainment,"Via Silvio Pellico, 6",45.46551694,9.189284496,4fd8d9f2e4b0bd3fc848a92b
"Manitese ""Molto più di un pacchetto Regalo""",General Entertainment,,45.46531684,9.190038649,50b9fdb0498e775084a57739
Puppini Sisters,Music Venue,,45.466212,9.191042,4e692afe483b3cd76c526ad4
Vecchie Bacucche,General Entertainment,,45.466932,9.190341,51d72cd2498e1ce6c2652147
deCanto - Cafeteria Gallerie d'Italia,Lounge,Piazza Scala 6,45.4674502,9.190210097,509f9fe4e4b047ee296e0c0e
Pubblico Soggiorno con Lovli,General Entertainment,"Piazza San Fedele, 1",45.46641388,9.191125631,4fb6ed9c1081afad3ff529a6
La Spagna a Milano,General Entertainment,,45.46590391,9.187595627,536bb859498ef43e3d1fea4b
Baja Bikes,General Entertainment,,45.467045,9.190002,5ca8bad4a6031c002cf18465
Accademia Filodrammatici,Theater,Via filodrammatici 1,45.46739784,9.188571957,4cd2da27a60d224bd19c31d1
Teatro Filodrammatici,Theater,1 Via Filodrammatici,45.46728262,9.188664297,4b058880f964a52004ca22e3
La Cupola,Lounge,Via Tommaso Grossi 1,45.46561,9.188915,4b058879f964a52007c822e3
Bar Straf,Cocktail Bar,Via San Raffaele 3,45.4651532,9.191407621,4bb892c47421a59316e1c140
Taste On Top,Italian Restaurant,Piazza San Fedele,45.46608281,9.190707207,5b1a3509c21cb1002ce39f36
Teatro alla Scala,Opera House,Via Filodrammatici 2,45.46702682,9.189686087,4b755f6af964a520d0082ee3
새벽반장처째쪼헌정포스퀘어,General Entertainment,,45.46766281,9.189052582,4f60aa6be4b071906c62dc78
Il Giardino,Lounge,Via Privata Fratelli Gabba 7b,45.46998939,9.188872156,4e05c7c462e100e58164e17a
Ridotto Toscanini,Opera House,,45.468703,9.189769,58c47265109dfe121732f8f9
Shibuya,General Entertainment,,45.47345501,9.187803531,50fd38b8e4b0c86738e9c878
Vans italy hq,General Entertainment,Via dell'annunciata 22,45.472902,9.191861,4c18f4844ff90f4758250f49
Fashion Cafè,Cocktail Bar,Via San Marco 1,45.47345165,9.187809969,4bca41d8cc8cd13ad05cbdcf
Via Brera 17,General Entertainment,,45.47267085,9.187670569,4e7ca5ec88777c30772e2fa3
Via Cernaia 2,General Entertainment,,45.473497,9.189778,50d8128ce4b0bc5a63e7d54f
Tavolo Notaro,Nightclub,Via Solferino,45.47478218,9.187965584,4fecadade4b03cd04269c3bf
Martini Racing Lounge,Lounge,Via della Moscova 28,45.476808,9.190388,5349607a498e7e943dd087c9
Rebus vivente di Virgilio @Mediateca,General Entertainment,Via della Moscova 28,45.47677406,9.189891815,4e6fb859814dd2cb95fb9b10
D-Still HQ 1.2,Office,via Merano 16,45.47787244,9.188266102,4f5f1209e4b06c88608ffe02
Mediateca Santa Teresa,College Auditorium,"Via della Moscova, 28",45.47689149,9.189951483,4ba8a263f964a520abe339e3
Barbarella Club,Nightclub,Bastioni di porta nuova 12,45.480217,9.187761,4d571703a747b60cfe1a312b
Viberoom,Nightclub,Viale Monte Grappa 14,45.4809625,9.189687691,54fb8399498edf0d9be08bad
Esterni,General Entertainment,,45.47892355,9.187223445,53bfac0e498e4731c1225a12
Lotvs,Cocktail Bar,Via Montegrappa 10,45.4809209,9.190417747,4ba9356ef964a52064143ae3
Cabri' Milano,Wine Bar,,45.47834736,9.187928578,510d761ae4b0eaed196f8d12
hacking film festival,General Entertainment,,45.481254,9.187801,5329d4f7498eb856b7e27900
Privilege,Nightclub,,45.48058978,9.189446534,546d410a498e95d9f687d95f
Boombastic,Lounge,Via Carlos de Cristoforis 2,45.478466,9.190081,56cf4003cd105562b4d3a4f2
Shocking Club,Nightclub,Bastioni di Porta Nuova 12,45.48082265,9.189561709,4b05887af964a52029c822e3
Hilton Club,Nightclub,Viale Montegrappa 14,45.48069823,9.189604935,5414c765498e8ab00d024e6b
Champagnerie Lattanzio,Lounge,Corso Como 8,45.481697,9.187713,4d0bc1e96aa0548122c6ebaa
Libreria Del Cinema,General Entertainment,,45.48097568,9.188689557,509ebbd9e4b04eb23d4aaef5
Heineken Social Networking,General Entertainment,,45.482116,9.187207,4fa40c8ae4b0244335a1d8c7
Post Me,General Entertainment,,45.481986,9.187852,50803bcbe4b0a0ddb1850df6
UniCredit Pavilion,Art Gallery,"Piazza Gae Aulenti, 10",45.48325774,9.191513173,55b7d5a0498e8e6f870603b1
Purple Hours @ Eleven Club Room,General Entertainment,,45.48254875,9.187289225,514b5d1de4b0809dce3e2725
TedXPortaNuova,General Entertainment,piazza gae aulenti,45.48372796,9.189413437,523c789f11d2e6f782087be9
Il calcetto piu' lungo del Mondo,General Entertainment,,45.48474596,9.189846998,5263aae711d2c678e4d0ac89
Belvedere Club,Nightclub,,45.48251935,9.187152204,4fa47788e4b0d607b85cf37e
Boombastic,Lounge,Via Carlo de Cristoforis 2,45.482242,9.188363,56cf3f78cd10114fb4aba6c3
Arci Metissage,General Entertainment,"Via Gaetano De Castillia, di fronte all'8",45.48545138,9.18933114,4be31d8d21d5a593bd3b1811
Tango dei Bassifondi,General Entertainment,,45.486234,9.189216,50be6077e4b06e050bc5a326
White Rabbit,Lounge,4 Via Garigliano,45.488029,9.189531,5bf8999cde3bbf002cac6715
rebelot,General Entertainment,cavalcavia bussa,45.485621,9.187225959,4edf7f986c25b6f30408ad5c
Isolacasateatro,Comedy Club,,45.487141,9.188523,4f663d6de4b098b396eea319
ZONA K,Theater,Via Spalato 11,45.48812139,9.191777623,4eecc773be7b6d62ffb75893
Pianoterra,General Entertainment,Via Federico Confalonieri 3,45.486541,9.189913,500ef914e4b0d914ef271278
Medionauta,Event Space,Via confalonieri fronte civico 1,45.48648107,9.188994019,4d9b6efd913a236aa3449f08
369 Karaoke Bar Musica Vivo,Music Venue,"Via Pellegrino Rossi, 93",45.48643274,9.188549212,4ee4d46999119449016464e2
Uramaki.tv Webvideofactory,Rock Club,Piazza Minniti 1,45.48742146,9.188254572,4f4b7365e4b0d5cfa149d49e
Kitchen Club,Nightclub,Via Pietro Borsieri,45.4879385,9.188916935,4fd4ebd3e4b034e1fab6d7ae
Blue Note,Jazz Club,"Via Pietro Borsieri, 37",45.48936365,9.188724728,4b058881f964a5207dca22e3
Rezidenza Di Nataliya,Lounge,,45.488874,9.188197,528f766611d222595edcd6bc
Malù Wine Bar,Lounge,via Pollaiuolo 9,45.48976308,9.187497662,51a10500498ef31a59a582f5
Teatro Fontana,Theater,"Via Boltraffio, 21",45.49210882,9.187773711,4b058880f964a52016ca22e3
Teatro Fontana,Theater,Via Gian Antonio Boltraffio 21,45.49203993,9.187763619,4d272082d86aa0905c861dc0
Oratorio Santa Maria alla Fontana,General Entertainment,Via Bassi 3,45.494486,9.18833,4d9cba5d5c33a35d685df1a0
Terrazza Ripamonti,General Entertainment,,45.44314194,9.19589138,50d36b83e4b0e638c0dcb1b8
Magazzini Generali,Music Venue,"Via Pietrasanta, 16",45.44437209,9.194948167,4b05887af964a5202ac822e3
Club Haus 80's @ Magazzini Generali,Other Nightlife,Via Pietrasanta 14,45.44437502,9.1950531,505cee05e4b0c1f8b65169b8
Clubhaus,Nightclub,,45.44437797,9.195012424,4f6cfd5be4b08d8da568a9d1
Item Club,Nightclub,,45.44494404,9.195075086,4bca200c0687ef3b8357dbcc
Spritz & Supplì,Café,Viale Toscana,45.446404,9.192332,5d7532374a3a310008c20691
Ballamenti Swap Party @Item Gastronomic Pub,Nightclub,via Pompeo Leoni 5,45.44492753,9.195036898,51dee813498e78f391aa124a
42,General Entertainment,Viale Bligny 42,45.45058216,9.192575866,4cf66c440a71224bd3e11d93
Teatro Scuola Paolo Grassi,Theater,Via Salasco 4,45.44931506,9.192321154,4d00ab95ffcea143399f2e91
Vinodromo,Wine Bar,Via Salasco 21,45.45037999,9.194806188,4c8ab18e2e3337044704c641
Havana Music Café,Cocktail Bar,50 Viale Bligny,45.4509,9.193445,4b05887af964a52040c822e3
Tropicana Milano,Nightclub,Via Bligny 52,45.45099859,9.193620814,4b75c843f964a52060242ee3
Civico 15,Lounge,,45.449161,9.195307,52af6622498e2dc132099fd9
Studio Musicale di Marc Bertrand,Music Venue,,45.45082841,9.192053,52afbe43498e02a4f3be0281
Circolo Arci Bellezza,Bar,"Via Giovanni Bellezza, 16",45.44893136,9.194944182,4bbedf53f353d13a15d17d10
Accademia Artedanza,Music Venue,,45.45324512,9.193580048,4e70b77ba8098087a0383b09
Spoon restaurant & lounge,Modern European Restaurant,viale bligny 42,45.45161241,9.194450949,55756f31498e9146747a77c1
Factory,General Entertainment,Viale Beatrice D'Este 42,45.452007,9.195379,4f60e9c1e4b0b97be652da17
APS Colore,General Entertainment,"via moncucco, 28",45.45154967,9.195055053,4d56aaea9e508cfa67bf109b
Biblioteca Comunale Vigentina,Library,"corso di Porta Vigentina,15",45.45440908,9.196033746,4ca36733b0ff8cfa1200b75e
La Strada,Pub,Via Carlo Patellani 4,45.45138118,9.193972528,4e89ec5330f84f195d23d935
Armanı Prıve Mılan,General Entertainment,,45.45255481,9.195227314,50ad7ce5e4b05090c0ab3d33
casa del sale via primaticcio milano,General Entertainment,,45.45772379,9.192829591,51683802e4b0666ccbb9d2b2
Disco Emanuele,Nightclub,,45.45541674,9.196017288,508a7ff7e4b0f38cffe91fda
Teatro Carcano,Theater,Corso di Porta Romana 63,45.45665356,9.195828005,4b058880f964a52003ca22e3
Teatro Carcano,Theater,,45.45673,9.195579,5df3dfbd255a2900072c16c5
Corsi per il Tempo Libero,General Entertainment,"Corso Porta Vigentina, 15",45.455448,9.195591,4e9efd6a8b81959cce1179b9
Disko Bellasimo,Nightclub,,45.45956706,9.192681403,50a43f52e4b01d68aadb988d
Cantiere Teatro Lirico,Theater,14 Via Larga,45.461328,9.192124,5bc2f0d7e55d8b002ce02ca3
Casa Chiaravalle,General Entertainment,,45.460683,9.192315,5199de2e498e74bed77ba43a
Teatro Gerolamo,Amphitheater,Piazza Beccaria 10,45.46423431,9.196652552,56ceb136cd108885a2672cc2
Pina,Lounge,Piazza del Duomo 22,45.46456026,9.19254367,5584220a498e8fbbf3f12b81
Missoni's Fashion Show,General Entertainment,,45.46266289,9.194945083,4e7f34d102d57f77e24fb1bd
QUBE,Lounge,,45.46435592,9.195153068,55bd40c8498e1fee318eede2
quantic,Nightclub,,45.46215,9.192844,57f8266c498e466c1b6ab8ae
Grand Lounge & Bar By Eataly,Lounge,,45.46423,9.193701,59c5fd00e1f2282d141c8a1a
Alphabet,Other Nightlife,,45.46198217,9.192999843,51bb859d498eba02a478a2c7
teatro de gli incamminati,Theater,,45.464557,9.196094,5849b2a3ef787f3415f66bed
День Рождения Любимой Девочки!,Lounge,,45.464095,9.194184,50924445e4b0b5257809393f
Apophis Club,Nightclub,,45.462667,9.195925,5aadbe4f7dc9e17c6fb533f4
Punks Wear Prada,Nightclub,Santa Tecla,45.46271493,9.1927276,4eebcc695c5c794ad034b427
Santa Tecla,Cocktail Bar,"Via Santa Tecla, 3",45.46274506,9.192589982,4bff8548ca1920a1d1e8ec81
Trident Management,General Entertainment,Corso Europa 13,45.46476777,9.195678855,524aed6f11d212c1f817b5fb
Empire of Music,Music Venue,2 Via Sant'Antonio,45.4620358,9.193628447,4b05887af964a52063c822e3
Grazia.it Party,General Entertainment,,45.465356,9.194097,4e7f82b3f7906851ae8e9670
Mondadori liberty fashion house,General Entertainment,Piazza Liberty,45.465553,9.193971,505a114be4b052ecdb0130b3
food experience,General Entertainment,Piazza Liberty,45.46536217,9.193948981,5066ee43e4b01f86f0e6a8ad
Golden Door: Famous Night Club Priv£ - Milan Center,Nightclub,,45.466865,9.192675,59a5e4033b4e007881bb8b6c
Rooftop Boscolo Autograph,General Entertainment,Rua Corso Mateoti,45.466329,9.19438,57951902498e69f15cad454c
Alessandro Party,Nightclub,,45.465618,9.196162,50ba9bc8e4b077f48dacfae3
Auditorium San Carlo,General Entertainment,,45.46632385,9.19619751,530bab21498e443d3bba1b76
DA MOVE in Contest,General Entertainment,,45.465404,9.193943,5185181f498e370b4d5d9439
Societa' del Giardino,General Entertainment,Via San Paolo 10,45.4658333,9.193827472,5196b70b498ec5c5543558f3
Makr Shakr,Nightclub,,45.46508049,9.195080563,51671894e4b02ecc2ae0a56d
Il Tamarindo,Coworking Space,"Via San Pietro all'Orto, 10",45.466279,9.195791,4c0e1979b1b676b0dd7ae186
Boucheron Paris- Press Cocktail,General Entertainment,,45.468656,9.19336,4fc64f22e4b005fcba6d4e19
Armani Club,Nightclub,,45.47098382,9.192997576,51f43051498edc6647b6a23b
Baccarat Boutique Bbar Lounge,Lounge,"Montenapoleone, 23",45.46919,9.193888,5cc44eb5c8b2fb002c8a6423
Teatro Manzoni,Theater,Via Alessandro Manzoni 42,45.47121444,9.194046349,4b058880f964a52008ca22e3
Armani Bamboo Bar,Cocktail Bar,Via Alessandro Manzoni 31,45.47048274,9.19278531,4ed26d1929c223f92b46cd37
be&at's,Lounge,Via della Spiga 34,45.471045,9.196126,583c35599900e6088cc68b0e
Il Foyer,Lounge,"Via Gesù, 6/8",45.4694627,9.1953476,4b058879f964a52003c822e3
TG VIP Lounge Milan,Lounge,,45.4691756,9.195472628,4e621e772271573ad77529f9
Philips Saeco - Spazio Click,General Entertainment,Via Vincenzo Forcella 7,45.46907609,9.192978665,4d91dbc6521760fc354d1593
Style.it Catwalk Lounge,General Entertainment,Via Monte di Pietà,45.47014778,9.192190093,4c972b3a7605199c310ac7a3
Armani Privè,Nightclub,"Via Gastone Pisoni, 1",45.47081033,9.192903437,4c814aaee63376b0bc15ac3d
CoSTUME NATIONAL fashion show,General Entertainment,Viale Della Liberazione 10,45.46925381,9.194923825,523b031e11d2a55676fc4678
Biblioteca di Via Senato,College Library,Via Senato 14,45.47084586,9.196205312,4c08be791244b713ce10a872
flusso creativo indotto,Comedy Club,ognidove,45.47212605,9.193397216,510fc042e4b03bf8425aebf3
Deseo Lento,Lounge,,45.47375841,9.195518553,57358e1a498e6033e5841868
Wareika @ JUST THIS 006,Nightclub,via turati,45.477266,9.194592,4d5f15b25c39b1f7f691f349
PUNKS WEAR PRADA,Nightclub,VANILLA CLUB,45.477569,9.195147,54e7bc21498e288b0278c113
teatro alcione piazza vetra 7,Concert Hall,Piazza Vetra 7,45.47759183,9.196060124,530a2cac11d2552101e7aea2
Radio Studio 105,General Entertainment,"Largo Donegani, 1",45.47610368,9.193473227,5284ec6111d2145eec150e87
Byblos hq for show,General Entertainment,,45.4765794,9.1941792,4f47e8a2e4b0426dba47a31d
Glitter Club,Gay Bar,Via Torino 64,45.47708217,9.195765852,5234f48111d2fa11a1031b2c
Club Camperio,Lounge,Via giorgio giulini 6,45.47669231,9.196343471,4c9ba0ef9c6637042f1963fd
sTURAToio,Nightclub,Via Filippo Turati 38,45.4766232,9.196124488,4d26f225dbc160fcc1e740b6
Radio Monte Carlo,Radio Station,Largo Donegani 1,45.47616523,9.193802078,4c2ca5a077cfe21eb34db6f1
Spazio Pin,General Entertainment,Via Monte Santo 5,45.47907505,9.193951613,537e56ce498edfe99400f051
Casa Real Time,General Entertainment,Via Mike Bongiorno 9,45.481133,9.195218,56743532498e1e2a73fe1bdc
Principe Bar,Hotel Bar,"Piazza della Repubblica, 17",45.48003532,9.196310795,4dc5cc55b0fb5556ccfb083f
Spyder J Film,General Entertainment,Viale Monte Santo 8,45.480327,9.193875,5360ef08498e27bed213808b
Circo Pic,Theater,MM Gioia,45.48466248,9.196153435,4f48fc34e4b0bf728829a77d
Punks Wear Prada,Performing Arts Venue,Eleven - Via toqueville,45.48239397,9.192593673,4d02b98d54d0236a398be4d5
il teatro addosso dei Gambadelegn,General Entertainment,Via Volturno 26,45.48672831,9.192924124,538ae0f2498e54d858dab5d0
CAPRICCIO Disco Club Privè Milano,Other Nightlife,Via Ippolito RoSellini 1,45.48813647,9.193566442,5452688c498eb1d3163e7e5d
MCM Marathon Village,General Entertainment,,45.48681607,9.195918284,515da4abe4b0f1b2c3ad7e5f
Panino Milano Music Lounge Bar,Concert Hall,"Via Galvani, 34",45.48779356,9.196255715,4fad6b1ae4b033cf3f7e7c72
Crudo Milano,Lounge,Via degli Assereto 19,45.48968023,9.195918445,57cf2922498e9431e9be14d2
Nuovo Cinema Paradisi,General Entertainment,,45.491912,9.193967,4d2da6f779bc721ec6faecee
P12TWELVE,General Entertainment,,45.44466775,9.197963149,4f732daee4b0b7ca3b2c26c7
Il Calcetto Di Kettydo,General Entertainment,,45.44516729,9.196650915,4e6776efb61cf40ed6a657d9
Studio 117,General Entertainment,Via palladio 18,45.44704777,9.199828777,4bf64ff14d5f20a18c1299fe
Centro Sportivo Kinect,General Entertainment,,45.447395,9.199717,4d6d3e69cb0eb1f744a4a9a0
Studio Fotografico Romiti,Photography Lab,Via Vannucci 5,45.449749,9.198146,4dda98b1d22d38ef4332e32a
Disco Lies @ Circle,Nightclub,,45.4527983,9.196947708,50ba9728e4b09c65426d1d73
G.A.G.R.,Nightclub,,45.451585,9.197221,5258696611d2db0e7f69790e
Flightsimcenter,General Entertainment,,45.4524926,9.198868349,4cf1102b7bf3b60c37565d7f
Teatro di Porta Romana,Theater,124 Corso di Porta Romana,45.45513729,9.201129615,4b058880f964a52011ca22e3
Società Umanitaria,Cultural Center,Via Daverio 7,45.45933239,9.201247805,4e6e957281dc21b2a410a8b2
Sala Regia,Theater,,45.459066,9.201135,4eac136e6da1cafdae98dff1
Jewish and the city,Theater,,45.459795,9.198638,524820a411d23234db9db463
Rebus viventi di Virgilio @Chiostri,General Entertainment,Via San Barnaba 38,45.45975437,9.201006889,4e6fba1e814dd2cb95fbe666
Teatro Gerolamo,Amphitheater,Piazza Beccaria 10,45.46423431,9.196652552,56ceb136cd108885a2672cc2
Vertical Stage - Motel Connection,Nightclub,Corso Europa,45.46476121,9.196848354,524721fb11d2bc244abb1b22
Extasià,Nightclub,Via Marziale,45.46337048,9.198501767,4d3247955c2db60cb394c06c
Spot Campari Soda - Via Corridoni,General Entertainment,,45.462763,9.199824083,4fabd0b3e4b0d35ca48cface
Taveggia,Lounge,"Via Uberto Visconti di Modrone, 2",45.46324616,9.199005426,4b45d4a3f964a520ec1026e3
ManageEngine User Conference,General Entertainment,Largo Augusto 10,45.46312,9.197626,525da2a811d2234163ead7d3
Bordello,Rock Club,,45.464042,9.197888,4f7da9fee4b0b591d61f8410
L'essenza Del Te,Lounge,,45.464552,9.198319,4ebfb70df790741160c10ee2
La Milanella,General Entertainment,Milano,45.46672,9.200701,508ae828e4b032cef1a9fe59
Pure wellness,General Entertainment,Via Borgogna 5,45.4659823,9.1989391,56d6a749498eb7c9adc221b8
Teatro Nuovo,Theater,Corso Giacomo Matteotti 20,45.46644323,9.197112322,4b058880f964a52009ca22e3
The Cavalli Gentlemen's Club,Lounge,,45.46806856,9.196776213,50f309f3e4b0c0d3b222ffa4
Siddharta Il Musical,Theater,,45.46544733,9.198282055,4f33e254e4b05255beaa1c77
So Chic So Stylish,General Entertainment,,45.467376,9.20085,50f45ae2e4b0a0fda4ee1230
Mulab,Comedy Club,,45.46552206,9.19781711,50fc0b41e4b0c9cf8da4bafd
Teatro San Babila,Theater,Corso Venezia 2/a,45.46708361,9.199118593,4b058880f964a5200dca22e3
Rose's,Nightclub,4c Galleria San Babila,45.46712705,9.198382475,4b05887af964a52034c822e3
ALBERTA FERRETTI FW/12Fashion Show,General Entertainment,,45.47020759,9.197654044,4f44dcace4b0f1d45d3a8eb0
milano marittima,Nightclub,,45.471149,9.197393,54e94fe4498ec7eb24308eeb
Flamingo Tower,Nightclub,,45.469049,9.196855,55d65e46498e1979b1cdbd1e
Baretto al Baglioni Restaurant,Bar,Via Senato 5,45.46928758,9.198690934,4e0747861f6e2110338bc48c
Carlton Hotel Baglioni,Hotel,"Via Senato, 5",45.46933351,9.198617601,4bfcc7e7e529c9282002ba8c
El Chiringuito De La Moda,Nightclub,,45.47636355,9.200003541,5048beede4b0078843b17e33
iamarichbitch,Nightclub,"Via Filippo Turati, 20121 Milano",45.47769434,9.196741942,4f72b9efe4b060af1a66c803
Coffee Ranch @Nuvó Consulting,Lounge,,45.477772,9.198652,4c36021b213c2d7f96023b5d
Rami's Milano Lounge,Lounge,,45.477717,9.199238,520f9a8211d2f88a78394437
AFI Associazione Fonografici Italiani,Music Venue,Vittor Pisani 8,45.48107241,9.200144132,4cb827cca33bb1f71eb27efd
Palco,Lounge,Via manuzio 6,45.47853761,9.200280151,4c23ad2f136d20a12199e061
Westin Palace Terrace,Bar,Piazza della Repubblica 20,45.47885462,9.199107376,4b058879f964a5200ac822e3
Ethos Loungebar,Lounge,"Via Vittor Pisani, 6",45.480831,9.199280045,55bff2fa498e8dfc87d6e77c
Teatro San Gregorio,Comedy Club,Via San Gregorio,45.48118629,9.201275892,4df3b82214954f21cf2f4a22
Warner Chappell Music Italiana,General Entertainment,Piazza Della Repubblica 14/16,45.4783614,9.198313951,503cb52cf2e78347e8c1066c
Ribessin' Crea,General Entertainment,Via Fabio Filzi,45.48069117,9.198167767,5001fe91e4b0eb34b51d6a9e
RICCIMILANO,Lounge,Piazza Della Repubblica 27,45.480514,9.19916,56a2b438498ee1a54d152a0b
Massacio Room,Rock Club,,45.478904,9.199053,4f7315c8e4b0979fe75843e6
FarinaMi,Lounge,"via Vittor Pisani 19 Milano, Italia",45.48293932,9.201336587,4c3c7cd07ea8952122372247
31st floor,Nightclub,Via Filzi 22,45.484878,9.201182,52aa4ec5498e59e542b9ddd4
Lo Strillone,Opera House,,45.48745128,9.197346859,4d2ebbe05d4ca1cde3c61a1b
DB Vocal Studio,Music Venue,Via Melchiorre Gioia,45.48841211,9.199738754,4c8f6e76daa93704b67954b1
Quelli Di Grock,Indie Theater,Via Emanuele Muzio 3,45.49050165,9.200625704,4dd007bc52b1f8915bbdc186
RS Music,Music Venue,Viale Sondrio 3,45.48974464,9.200872844,4c3e099f6faac9b649a90d76
Pacta dei Teatri,Theater,"Via Ulisse Dini, 7",45.489548,9.198433,5812146038fa7f98289e7576
Level One,Music Venue,,45.489412,9.199894,4d9f946fc22f6ea8700023a8
Db Vocalstudio,Rock Club,,45.48867798,9.199713707,4efa0af1be7bb4784fe30b6e
BalcoNynni,Comedy Club,Via Adige 19/a,45.447667,9.205127,4ea50c800aaf711181b1c0d7
RC28,Music Venue,,45.44778703,9.202374889,51375056e4b081ac605613f0
Social Music City,Music Venue,,45.4466329,9.2049421,5b179289f427de002bcc14a6
Up Party,Nightclub,Via Pietrasanta 14,45.44864528,9.203590456,529a70a4498e6cf8e13d22a2
Passeroni,General Entertainment,via Passeroni,45.449468,9.205454,4d1a4d1d6d103704e1704ebd
Natalia's Loft,Lounge,,45.4495163,9.202194214,4f5a6f87e4b083219d69f188
Body Massage,General Entertainment,Viale Sabotino 16,45.45040824,9.201569052,4d8122e01013236aed839535
Spazio Sarfati,General Entertainment,,45.45047091,9.202653928,524aeb9911d2e242555a7df1
Kubistudio,Music Venue,"Via botta, 13",45.45332,9.204424,4cd7ced03ec4b1f75633bb3f
Viale montenero 8,Comedy Club,,45.45306749,9.20317752,4eb870d4991165b763a923f5
spazio contempo,Concert Hall,,45.45412,9.201559,518aa6fc498e5c30a93db3ff
HTC - Party @Terme Di Milano,Nightclub,,45.45206839,9.201941863,4f6b8f50e4b0803c8b26cecf
"Via della Braida, 6",Comedy Club,"Via della Braida, 6",45.454343,9.202167,4cf266cae94254818b0170c5
Spazio Botta,Lounge,via Carlo Botta 8,45.45265488,9.204305636,4c111a08b93cc9b6baca57e0
Teatro Ariston,Theater,Corso Giacomo Matteotti 107,45.45754242,9.205416679,5119f4c1e4b007747175f80d
Bolo Brothers,Comedy Club,,45.45533942,9.206074345,55cb33f1498e26222629c904
Sonny Music,Concert Hall,,45.45594742,9.202245802,4f7c93e5e4b043bd2b7d784d
Terrazza Conti,Nightclub,,45.455301,9.202905,51c030f0498ed1bdf78eebd9
Womade,General Entertainment,Chiostri San Barnaba,45.45926557,9.201831611,5067678be4b0e8655890b3ee
mixage,Nightclub,,45.45928543,9.204868283,5081eefce4b0361f65ff567d
Cheating House,Comedy Club,Via Bergamo,45.458746,9.206200506,4e077aab45ddb2875c4af9a8
Fondazione Humaniter,General College & University,"Via San Barnaba, 48",45.45988983,9.201489687,4e25597cb3ad13e5a2f1bfba
SenzAtomica,General Entertainment,Rotonda Della Besana,45.45983284,9.205375489,51449963e4b0315279e83fd6
Mixage,General Entertainment,"Viale Regina Margherita, 9",45.458314,9.20535,51cf5ba0498e15e9daddc42b
Salone Degli Affreschi,General Entertainment,,45.45911061,9.201800976,4eb4ffa8b8f786e275013e7a
Sala Verdi,Concert Hall,Conservatorio 'G. Verdi' di Milano,45.46472398,9.204381935,4ebb0ad43b7b59c379469403
Spada Birthday,Lounge,,45.46417,9.201724,5062079fe4b09b3387c6f3ee
Teatro Derby,Comedy Club,"Via Mascagni, 8",45.46593715,9.201564522,4be30b95660ec928ddfcca3b
"Conservatorio di Milano ""Giuseppe Verdi""",Music School,Via Conservatorio 12,45.46485389,9.203342662,4b058880f964a52006ca22e3
Spin Master Open Day Aperitif,General Entertainment,,45.471385,9.202758,4fbe6167e4b00d45e78ff146
Vivaio18,Nightclub,,45.4705016,9.203839118,4f6cf84ae4b058b4c0431f6d
Quelli Del Vivaio,General Entertainment,,45.47047625,9.203596235,4f24349de4b083187654c938
Stand ABS in MADE IN STEEL,General Entertainment,,45.469577,9.203545,515d8088e4b09b10ae928de0
Made In Steel,General Entertainment,,45.469553,9.203668,515d7b34e4b0e6cd589ee0da
HP Human Discount 11,General Entertainment,Porta Venezia,45.474572,9.205634,4db1aff6432d3c2e968ed8d5
Al Veglione Da Aua,Nightclub,,45.47763195,9.201747822,4eff74c129c201c6fd042d65
روتانا كافيه,Lounge,"Via Panfilo Castaldi, 39, 20124 Milano",45.475865,9.205465,57bcb83d498eccd9b064ff60
Imperator Lounge,Lounge,Via Panfilo Castaldi,45.477092,9.202418,56be8147cd105d8260ef1cde
35 Food & Drinks,Lounge,"via panfilo Castaldi, 35",45.47602092,9.204529634,4bbe1ea80ec69c74d7db5559
Zibby Aus,Comedy Club,,45.4778316,9.203107428,4f05b7eda69d735e25e41171
Italian Penthouse,Lounge,,45.475895,9.203449,589a2947e0adac6e59f49a20
Coincidenze,Comedy Club,Viale Tunisia 13,45.477227,9.205093,4d9378927ac3a35d95b8d725
Sala Dei Venti,General Entertainment,Via Lazzaretto 17,45.47945,9.203504,507eb6cce4b0889aa5a0b6d9
b:free,Cocktail Bar,"Via Lecco, 21",45.47861975,9.20581679,4c1d38e2b4e62d7feb67dc93
Aumma 2,General Entertainment,,45.47840118,9.205417633,4fc0af93e4b0d6554a1df719
Range Rover - By Invitation Only,General Entertainment,Via San Gregorio 29,45.479512,9.204075,5076ccf0e4b0abe31a3e54ac
Salone Delle Feste,Lounge,Via San Gregorio,45.48045907,9.20195569,4f0ed06fe4b06ab9f985a692
Blue Night Club,General Entertainment,,45.48388411,9.203889894,4f89f4afe4b055d2307f3eb0
The Singer Music Restaurant,Restaurant,1 Via Giovanni Battista Pirelli,45.484208,9.201723,5c8d628ee1f2280039b33429
TicketMi,General Entertainment,Stazione Centrale,45.48459247,9.203091074,520e3bbc11d26726ece6c83d
TomTom Party @ Gattopardo Cafè,Lounge,"Via Piero della Francesca, 47",45.48533201,9.204982971,4ddb74bd091a19449efb0945
Emporio Armani Caffe',Lounge,"Via Manzoni, 31",45.486484,9.204250545,52691962498e200df7d81dd5
Arrivederci Hawaiano,General Entertainment,via Valsesia 126,45.4884174,9.205274,4de91243d4c0faa5643f6a39
Lounge Italo Club,Lounge,Piazza Duca d'Aosta 1,45.48586,9.204891,574bfbcb498e083886c9e2c0
Scuola TeatroCirco,General Entertainment,Via Napo Torriani 18,45.48736138,9.203555884,5075b437e4b0ff5ba56b7bbd
CasaBortolo,General Entertainment,,45.490141,9.20418,5075cd34e4b013a8f716093f
gstreet,Nightclub,,45.488688,9.205384,5862f966761b1a5ec773de36
Apollo Dancing,Piano Bar,,45.491664,9.203548647,4ce83fc29f776ea8adfa5c22
Confused Club,Nightclub,,45.488731,9.205265,57ae3923498e8ecc651802cf
Aula MAC DON BOSCO,General Entertainment,,45.4897906,9.201790723,506559e0e4b03ffa15d3b9a2
The Siam Society,Nightclub,6 Via San Gerolamo Miliani,45.45071645,9.207919299,4b05887af964a5203ec822e3
Toledo,General Entertainment,,45.450027,9.206807,4f0d8c6ee4b0a91e14314a71
Frilly Nite,General Entertainment,,45.44883384,9.209185327,51d46168498e460c36306e98
Teatro ELF,Theater,,45.44959054,9.207474839,4f8f0272e4b0db47030dca4a
Teatro Franco Parenti,Theater,"Via Pier Lombardo, 14",45.45394463,9.206254515,4b05887ff964a52000ca22e3
Milano Haus Musik,Concert Hall,,45.4514418,9.209035935,5606edf6498ee63321f0ac2c
Gambler Bar Pub,Music Venue,,45.4516669,9.2078355,57270457498e1dc5ad0f7317
Macchine&Media Event,Comedy Club,,45.453508,9.206393,506da9b9e4b0666b52e1e36f
Whitelabs,Art Gallery,,45.453468,9.208588,4bbe11a18ec3d13a54de1c28
Teatro Silvestrianum,Theater,"Via Andrea Maffei, 29, 20135 Milano",45.45652378,9.2071831,4f7756dbe4b0b009ee3535a4
Yellow House,General Entertainment,,45.45651,9.206808,4c91ebdb51d9b1f7b2528446
le piccole note di manuela,Concert Hall,,45.455827,9.20762,4ed8f8268231efe38d9cc97a
Nero 78,General Entertainment,,45.46088236,9.209759989,5148cda2e4b05ae0dad137dc
Spartaco Lounge,Lounge,Via Spartaco 17,45.45969,9.209805,5657573b498ee7d703b1d04c
Beating Guitje,Comedy Club,,45.459085,9.208955,5086ff8be4b0c582bc0b739e
La Rupe Tarpea,General Entertainment,,45.45895676,9.208748718,4ef1b84a9a52fadb32a18ddb
ADM - Spartaco Lounge,Lounge,Via Spartaco 17,45.459539,9.209911,565757f1498e577372108fb0
Sciesa 1 Komarova!,Nightclub,,45.46179581,9.209481239,4f63a8eae4b0aa8f665873e8
Globe Restaurant & Lounge Bar,Lounge,Piazza Cinque Giornate 1,45.46241708,9.206570955,4bfd90bbb68d0f47f4f7e857
Ilcielosottomilano,Theater,,45.462218,9.207448,5c82c6f6603d2a002c9e9ded
Zizzi,Nightclub,Via Pietro Calvi 31,45.46243266,9.210902567,507a010ee4b06b24da4f3f39
"Blues House Club, Milano",Concert Hall,"Via Sant'Uguzzone, 26, 20126 Milano",45.4676484,9.210125519,4f532810e4b0d9ab7b4179f2
MY S.p.A.,General Entertainment,,45.46665882,9.209943841,517c1c86e4b0192de534c5f9
Studio Rent 21,General Entertainment,Via Eleonora Fonseca Pimentel 18,45.46738457,9.209399771,546deaa7498ee87b20a516bb
frigo studio,Concert Hall,via premuda 38/a,45.46664234,9.208430838,521b5995498e9e5da7c376e9
Dreamland,Lounge,,45.46773529,9.207762718,51045a06e4b0db1114d8b7e5
Palazzo Chiodi,Nightclub,"Via Macedonio Melloni,19",45.466616,9.210997,4d5c63741e43236a47591983
Aula Attori Musical,Comedy Club,,45.469294,9.207828,4f6d9b7de4b05c9c2af86859
Accademia 09,Theater,Via felice bellotti 15,45.47091146,9.209661523,4da0205e4977236acf77bc96
Jeunesse,Lounge,Via Lambro,45.474168,9.209628,5930992060d11b4e686ffbab
Piazza d'armi,General Entertainment,,45.472222,9.208148,4f9b0884e4b017ea49dd1bb3
www.simpleflair.it,General Entertainment,Porta Venezia,45.47244834,9.207400388,5249d0a311d2a5f6505084b1
The Botanical Club,Lounge,16 Via Melzo,45.473797,9.209344,5c1ea1f5121384002c3430f7
Il Terrazzo,General Entertainment,Via Melzo,45.473935,9.209248,4fc41431e4b0d35edf54c592
Sweet Moon,Music Venue,3 Piazza 8 Novembre 1917,45.47661735,9.207062077,4b05887bf964a5206bc822e3
P-NUTS S.r.l.,Office,"Via Omboni, 6",45.47713901,9.209324882,4bd05938462cb713f523d807
Kalicanthus,General Entertainment,,45.475954,9.210315,4ca9d4d4f47ea14345c18221
Cafe Lokko,Nightclub,Viale Regina Giovanna,45.475382,9.208841,50fa9a16e4b0072445cc367b
Hdhv,Nightclub,,45.477681,9.206361,51618b41e4b0002109b247ce
Apriti Cielo,General Entertainment,,45.4758368,9.207651213,51c48cbd498e5d270d035022
Saint Club Milano,Nightclub,"Corso di Porta Ticinese,23",45.47534293,9.210768933,564326ec498ef7003a0939ca
FAIMarathon 8a Tappa,General Entertainment,,45.476368,9.208148,5083d6b1e4b0be59d68c9ab3
Mimmo Ristorante Milano,Mediterranean Restaurant,Via Sirtori 34,45.47496999,9.206917052,4ee9e8efb634ea5579c9477c
Adobe Creative Days,General Entertainment,,45.47687245,9.210724398,519dcae1498e59f82543106d
Shanti Cafè,Lounge,,45.47724038,9.206925186,5601e57a498eabcd16b11da3
Marcello Lounge Rooftop Bar,Lounge,,45.48064399,9.207677652,55eb272b498e808c917fbf4d
Design Magazine,General Entertainment,,45.478973,9.208461,4d08f7ace554721e05b2c4f8
Pin Up,Nightclub,68 Corso Garibaldi,45.47870097,9.209166162,4b05887af964a52068c822e3
Consulta Dei Lavoratori,Opera House,Via Tadino 18,45.47890421,9.206887301,4f4b7156e4b0cccede5e4a9b
SCANNAnTOnIO,General Entertainment,,45.481464,9.209865,54d52188498e31d1e8ccf260
St Gregory,Comedy Club,,45.478479,9.206489,4f84550be4b062ce21676db1
Teatro Elfo Puccini,Theater,"Corso Buenos Aires, 33",45.47931743,9.209930551,4bcaf9110687ef3bdad4dccc
Teatro Delfino,Theater,"Via Dalmazia, 11",45.47846343,9.20746146,50b12505e4b0a74d35642772
Secret Rooms,General Entertainment,Via Boscovich 48,45.4794903,9.208726897,55a8251e498e8f754fd84a8b
SCANNAnTOnIO,General Entertainment,,45.481162,9.210093,54d521d4498e20885e13c247
kaleidoscope,General Entertainment,,45.479434,9.210863,50ef063ee4b095e8bb8ffd99
Portineria Lino,General Entertainment,Via Tadino 18,45.47886444,9.207302141,4f32a080e4b0224b4d1a2444
DO.G.S. (do the groove on sunday),Nightclub,Via Cena 17,45.48197979,9.207742231,569b001d498ec64f470a541f
Teatro Gregorianium,Theater,,45.482875,9.208075,5297a7cc11d21cfe080f2f4a
Studio Thank,General Entertainment,Benedetto Marcello,45.482471,9.209077,54383c9a498edc9273ac42a4
Moma Studios,Dance Studio,,45.48639524,9.207807871,516d2da2e4b06c51d97d7e62
Valli's,General Entertainment,Andrea Doria,45.48828977,9.210705071,518b9121498e74eafda3d94a
Caffe' Doria,Jazz Club,via andrea doria 22,45.48550218,9.210984987,4c234b759a67a59383c0dd87
L'altra musica,Music Venue,,45.4863323,9.206832,4f7c9cf4e4b09db1ab62486c
Club Privè Liberty,Nightclub,Via Soperga 19,45.48825148,9.209890665,4f7c3bd3e4b0f9b415498de2
Agis Lombardia,General Entertainment,,45.48595311,9.207537179,4d949baf3048b1f7a7d23464
sguardi - incontri teatrali,Theater,via privata cuccagna,45.45439986,9.214493036,59bf7ccbd8096e36d5338c4c
Circolo,General Entertainment,Ferrini,45.45252687,9.212805796,4f26dcaae4b0fd183a3a2281
Cadore 33 Studio,Music Venue,Via Cadore 33,45.45658091,9.212826856,4ca49c18d7c33704a8bcaa62
Fabio Moretti Studio,Concert Hall,Via Rezia 1,45.4559377,9.214898676,50d5858fe4b02f7393835e6c
Via Friuli prove,General Entertainment,,45.455405,9.214,5046697ae4b0eb12aaf3f539
Pulp,Rock Club,via Cadore 48,45.45582976,9.211163977,5af56ca7b37e2b002cd3e291
UNPHOSSY STUDIO,Concert Hall,Via Rezia 1,45.45583302,9.215007007,5131ccc3e4b0bef18333854b
Casa Morosini 12,Comedy Club,Via Morosini,45.460612,9.211099,4dfa5d6cd4c064db03abe3c3
Maratona Manzoni,General Entertainment,,45.45879,9.215246,57f7f81f498ec6d14c89eeac
ADCI Award,General Entertainment,,45.459406,9.214835,4fda2bdbe4b01d43a3d50c0d
Teatro Arca,General Entertainment,corso XXII Marzo 23/15,45.46287882,9.212613377,4c91c433c4b9bfb76e2774f1
N 21 Fashion Show,General Entertainment,,45.46471353,9.212485379,5124fea2e4b0a8e56b814a76
Perrillo's Tube,Theater,,45.463035,9.212392,5291227a498ec6432c889eef
Goodfellas,Music Venue,via fiamma 20,45.4622915,9.2143433,4e738eda88778d253b2efed6
Teatro dell'Arca,Comedy Club,Santa Maria del Suffragio,45.46237602,9.213061769,4bbce7584e069c7496139ee3
L'Arca,Theater,,45.462272,9.212727,4cdeba8278ddf04d8d519c98
Teatro Menotti,Theater,"Via Ciro Menotti, 11",45.46995225,9.212605181,4d41c92dbd53f04dcfd65015
Motology,General Entertainment,"Via Ciro Menotti, 22",45.471386,9.213379,51360ee7e4b0f440b64f21ea
shutter movie,General Entertainment,,45.47,9.214857,57a73cf1498e6c0508a69acd
Cortilato,Lounge,,45.47079007,9.215707667,4e7cf831be7b3e0c050ace54
Queen Streep Show,General Entertainment,,45.46827316,9.213413239,5181445c498e592c3132fa36
Teatro dell'Elfo - Ciro Menotti,Theater,Via Ciro Menotti 11,45.47014513,9.214138718,4b058880f964a52012ca22e3
gold,Nightclub,Vis Carlo Poerio 2/a,45.46855498,9.21115058,53360baa498e4cca4da143f1
Hat Party,General Entertainment,Goldoni,45.46938534,9.212176705,52a36f1f498eff5d57901e5d
New Face,General Entertainment,Via Eustachio 12,45.47434627,9.215624475,4f103117e4b0456265bed527
JazzClub,Jazz Club,Bixio,45.47341134,9.212581186,4f34326fe4b03aa3cadded9e
Studio Caiulo,General Entertainment,,45.47454714,9.211660361,516997b0e4b038b9322a1a98
Teatro Officina,Theater,Via S. Elembardo 2,45.47159397,9.215021535,4eee1507e5faa560f1e5de78
New Faces Agenzia Di Moda E Spettacolo,General Entertainment,Via Eustachi 12,45.47476317,9.215118242,52187d1b11d26cfbf342a010
Milleluci Trattoria Pop,Diner,Via Pilo 7,45.47374761,9.212035242,4c643e0a2a58c9b614a13461
Il Salotto milanese di Grazia ed Enzo,Comedy Club,,45.474073,9.211946,4d0e30587d28721ee9e9fc20
It's Music,Music Venue,Bixio,45.47316483,9.212407001,4f2da18ee4b0620356ce7a85
Msgm Fashion Show,Theater,,45.4754678,9.212260647,523ee5cb11d2076f2523dbad
Casa Frossi,General Entertainment,"Via Bartolomeo Eustachi, 25-35",45.47738295,9.2146943,4c86a45ed4e23704150d8d88
Cine Teatro San Giuseppe,Theater,"Via Francesco Redi, 21",45.47743014,9.212956343,4eda51fa0e61d46ad7e6982f
Ferrulli's B&B,General Entertainment,,45.47735999,9.215255472,52838fd111d229994195f712
BT HQ,Lounge,Via eustachi,45.47607493,9.214153625,513f9998e4b0829e2cf34834
Golden Ice Milano,Nightclub,,45.475217,9.211911,4ec712a030f8b09c0b86ad4c
Coincidenze,Comedy Club,Via Paracelso 6,45.48081845,9.215715709,4ee9006e30f83ed82b8c51d2
PianoforteSpontini12,Music Venue,,45.481381,9.214524,52da5a7411d2954aacb06c05
Hotel Napoleon Lounge,Lounge,,45.480449,9.213231,530a0d70498ebd4ae41d791d
Via Ozanam 9,General Entertainment,Via Federico Ozanam 9,45.48071967,9.212644018,4fd0e925e4b0bbb4a4c6d729
Elfo Puccini,Theater,,45.48010968,9.215291672,4fc51976e4b0a6258ee6ceff
Rehearsal Room,Concert Hall,,45.479686,9.215198,53732a2e11d2eb2e00872d87
Areapergolesi,Music Venue,,45.48464553,9.212611034,4d603d081939a35dc7481fee
HP Human Discount 7,General Entertainment,Stazione Centrale,45.4819,9.212454,4db1ae5f432d3c2e968ec964
Scrontini Fagioli E Champagne,Concert Hall,,45.48188596,9.213591633,4ec6f201cc21b428e26a382a
Terrazza Spoladori,Comedy Club,,45.45830039,9.220100538,511d65b3e4b08a399e689504
Black Hole,Nightclub,"Viale Umbria, 118",45.46073484,9.217691652,4de6c916c65bc1e5f2e6efa6
Login Club Vogue Nights,Nightclub,,45.46071383,9.217612768,504a7f15e4b01b58f3608fd4
Cockette Party @ Plastic,Nightclub,Viale Umbria 120,45.461049,9.217561,4e98c07a9a52ceeb87e581e3
Giostra Dei Bimbi,General Entertainment,Largo Marinai D'Italia,45.461523,9.216585,4f6e02aee4b032eb63944bb2
Maratona Manzoni,General Entertainment,Piazzale Dateo 4,45.467785,9.216397,57f8bc8f498eeaa0fed0b417
Il Teatro della Scala Della Vita,Theater,,45.46681835,9.219526243,4f5b84f9e4b0090c099bef33
dr why,General Entertainment,,45.46709061,9.220471382,4fbbf8b9e4b07f05134c64e0
Aladin Etertainment Productions,General Entertainment,"Aladin's Adobe, Market Road",45.46928062,9.216091633,51ba9a46abd8a12baf80872f
Maratona Manzoni,Amphitheater,"Piazzale Dateo, 5",45.468674,9.216751,57f8afb0498e90b31ab57110
Newtopia,General Entertainment,"Via dei Barbarigo, 3",45.47145,9.21698,591662fb6e465058f7dc38c4
Fugacemente Lost Milano,General Entertainment,"Via Giovanni Pascoli, 3",45.47395,9.21826,5afe5158dd8442002ca9db0d
vjbline Mainquarter,General Entertainment,Via Verrocchio,45.47269226,9.219948032,5018b10ee4b0c3f23827b2f8
Bar Basso,Cocktail Bar,Via Plinio 39,45.47696331,9.217340485,4b058878f964a52093c722e3
MU Rec Studio,Concert Hall,,45.47675,9.21702,50a7acb3e4b0024edf4d9a12
Zoe azuli @ Evasion Milano,Nightclub,"Via Enrico Nöe, 10, 20133 Milano",45.47759628,9.218935013,4f748fa0e4b0f06c04a1103a
La Dimora Alta,Comedy Club,Via Enrico Noë,45.47692519,9.218096575,53b83610498e87680291820d
T.Rex studio,Music Venue,Via Vincenzo Vela 8,45.47795767,9.218103462,4d906c591d06b1f7be8b733b
Layali Cafè,Hookah Bar,Via Achille Maiocchi,45.47642188,9.216449382,578a9326498e4a05ae604c4f
New El Mawal,Nightclub,via broni 10,45.47698652,9.21709609,504179bfe4b00690ba4a78f5
GQ Apartments,Lounge,Via Plinio 38,45.47687259,9.21685492,4cacd0e414c337047b96f33b
IQ,General Entertainment,,45.477781,9.217892,51fa4cb0498e86775203b3ed
